<?xml version="1.0" encoding="UTF-8"?>
<gpx version="1.1" creator="kzi.jp gpx-viewer" xmlns="http://www.topografix.com/GPX/1/1">
<trk><name>富士見町</name><trkseg>
<trkpt lat="35.904992" lon="138.180872">
<ele>1778.432346</ele>
<time>2026-06-13T01:58:53Z</time>
</trkpt>
<trkpt lat="35.905308" lon="138.180981">
<ele>1780.282139</ele>
<time>2026-06-13T02:00:19Z</time>
</trkpt>
<trkpt lat="35.905513" lon="138.180759">
<ele>1783.19929</ele>
<time>2026-06-13T02:02:01Z</time>
</trkpt>
<trkpt lat="35.905796" lon="138.180716">
<ele>1785.850197</ele>
<time>2026-06-13T02:02:49Z</time>
</trkpt>
<trkpt lat="35.906081" lon="138.180687">
<ele>1786.952725</ele>
<time>2026-06-13T02:04:43Z</time>
</trkpt>
<trkpt lat="35.906361" lon="138.18068">
<ele>1786.273483</ele>
<time>2026-06-13T02:05:43Z</time>
</trkpt>
<trkpt lat="35.906582" lon="138.180419">
<ele>1784.554615</ele>
<time>2026-06-13T02:06:31Z</time>
</trkpt>
<trkpt lat="35.906643" lon="138.180043">
<ele>1783.335236</ele>
<time>2026-06-13T02:07:25Z</time>
</trkpt>
<trkpt lat="35.906695" lon="138.179643">
<ele>1782.715828</ele>
<time>2026-06-13T02:08:13Z</time>
</trkpt>
<trkpt lat="35.906813" lon="138.179203">
<ele>1780.41386</ele>
<time>2026-06-13T02:09:01Z</time>
</trkpt>
<trkpt lat="35.906947" lon="138.178805">
<ele>1777.877268</ele>
<time>2026-06-13T02:09:49Z</time>
</trkpt>
<trkpt lat="35.906774" lon="138.178397">
<ele>1775.277562</ele>
<time>2026-06-13T02:10:37Z</time>
</trkpt>
<trkpt lat="35.906623" lon="138.178069">
<ele>1772.032397</ele>
<time>2026-06-13T02:11:25Z</time>
</trkpt>
<trkpt lat="35.906476" lon="138.17753">
<ele>1767.520888</ele>
<time>2026-06-13T02:12:13Z</time>
</trkpt>
<trkpt lat="35.906238" lon="138.177091">
<ele>1761.054915</ele>
<time>2026-06-13T02:13:01Z</time>
</trkpt>
<trkpt lat="35.906116" lon="138.176748">
<ele>1755.460643</ele>
<time>2026-06-13T02:13:55Z</time>
</trkpt>
<trkpt lat="35.905943" lon="138.17644">
<ele>1749.320475</ele>
<time>2026-06-13T02:15:07Z</time>
</trkpt>
<trkpt lat="35.90577" lon="138.176159">
<ele>1745.515494</ele>
<time>2026-06-13T02:16:07Z</time>
</trkpt>
<trkpt lat="35.905975" lon="138.175901">
<ele>1743.828907</ele>
<time>2026-06-13T02:18:01Z</time>
</trkpt>
<trkpt lat="35.906106" lon="138.175594">
<ele>1744.047252</ele>
<time>2026-06-13T02:18:55Z</time>
</trkpt>
<trkpt lat="35.90597" lon="138.1753">
<ele>1743.924765</ele>
<time>2026-06-13T02:19:55Z</time>
</trkpt>
<trkpt lat="35.905704" lon="138.175327">
<ele>1742.329336</ele>
<time>2026-06-13T02:21:55Z</time>
</trkpt>
<trkpt lat="35.905511" lon="138.175607">
<ele>1739.253593</ele>
<time>2026-06-13T02:22:55Z</time>
</trkpt>
<trkpt lat="35.905242" lon="138.175499">
<ele>1737.818187</ele>
<time>2026-06-13T02:24:37Z</time>
</trkpt>
<trkpt lat="35.90518" lon="138.175284">
<ele>1739.301029</ele>
<time>2026-06-13T02:26:43Z</time>
</trkpt>
<trkpt lat="35.905172" lon="138.174949">
<ele>1744.130344</ele>
<time>2026-06-13T02:28:29Z</time>
</trkpt>
<trkpt lat="35.904919" lon="138.174826">
<ele>1748.384904</ele>
<time>2026-06-13T02:29:59Z</time>
</trkpt>
<trkpt lat="35.904521" lon="138.174778">
<ele>1749.371164</ele>
<time>2026-06-13T02:30:47Z</time>
</trkpt>
<trkpt lat="35.904263" lon="138.174303">
<ele>1750.687381</ele>
<time>2026-06-13T02:31:35Z</time>
</trkpt>
<trkpt lat="35.904003" lon="138.173981">
<ele>1752.358005</ele>
<time>2026-06-13T02:32:23Z</time>
</trkpt>
<trkpt lat="35.903633" lon="138.173734">
<ele>1755.876978</ele>
<time>2026-06-13T02:33:11Z</time>
</trkpt>
<trkpt lat="35.903352" lon="138.173611">
<ele>1760.363034</ele>
<time>2026-06-13T02:35:11Z</time>
</trkpt>
<trkpt lat="35.902929" lon="138.173496">
<ele>1763.546919</ele>
<time>2026-06-13T02:35:59Z</time>
</trkpt>
<trkpt lat="35.90266" lon="138.173462">
<ele>1766.451584</ele>
<time>2026-06-13T02:37:11Z</time>
</trkpt>
<trkpt lat="35.902477" lon="138.173184">
<ele>1768.621434</ele>
<time>2026-06-13T02:38:05Z</time>
</trkpt>
<trkpt lat="35.902303" lon="138.17288">
<ele>1774.18857</ele>
<time>2026-06-13T02:38:59Z</time>
</trkpt>
<trkpt lat="35.901936" lon="138.172526">
<ele>1781.010539</ele>
<time>2026-06-13T02:39:47Z</time>
</trkpt>
<trkpt lat="35.90159" lon="138.172134">
<ele>1787.483901</ele>
<time>2026-06-13T02:40:35Z</time>
</trkpt>
<trkpt lat="35.901521" lon="138.172022">
<ele>1788.894358</ele>
<time>2026-06-13T02:42:41Z</time>
</trkpt>
<trkpt lat="35.901793" lon="138.17179">
<ele>1788.78918</ele>
<time>2026-06-13T02:43:59Z</time>
</trkpt>
<trkpt lat="35.901544" lon="138.172035">
<ele>1789.018058</ele>
<time>2026-06-13T02:44:53Z</time>
</trkpt>
<trkpt lat="35.901616" lon="138.171765">
<ele>1791.605577</ele>
<time>2026-06-13T02:46:57Z</time>
</trkpt>
<trkpt lat="35.901507" lon="138.171951">
<ele>1791.434516</ele>
<time>2026-06-13T02:48:57Z</time>
</trkpt>
<trkpt lat="35.901631" lon="138.171953">
<ele>1791.269519</ele>
<time>2026-06-13T02:51:03Z</time>
</trkpt>
<trkpt lat="35.901549" lon="138.171917">
<ele>1789.926302</ele>
<time>2026-06-13T02:53:03Z</time>
</trkpt>
<trkpt lat="35.901673" lon="138.171716">
<ele>1798.474317</ele>
<time>2026-06-13T02:55:06Z</time>
</trkpt>
<trkpt lat="35.901415" lon="138.172024">
<ele>1798.763817</ele>
<time>2026-06-13T02:56:54Z</time>
</trkpt>
<trkpt lat="35.901502" lon="138.171934">
<ele>1799.949181</ele>
<time>2026-06-13T02:58:54Z</time>
</trkpt>
<trkpt lat="35.901515" lon="138.171899">
<ele>1793.670034</ele>
<time>2026-06-13T03:01:00Z</time>
</trkpt>
<trkpt lat="35.901575" lon="138.171851">
<ele>1791.109658</ele>
<time>2026-06-13T03:03:06Z</time>
</trkpt>
<trkpt lat="35.901508" lon="138.171915">
<ele>1791.091241</ele>
<time>2026-06-13T03:05:06Z</time>
</trkpt>
<trkpt lat="35.901516" lon="138.171931">
<ele>1791.104335</ele>
<time>2026-06-13T03:07:12Z</time>
</trkpt>
<trkpt lat="35.901568" lon="138.17193">
<ele>1792.539881</ele>
<time>2026-06-13T03:09:18Z</time>
</trkpt>
<trkpt lat="35.901544" lon="138.171903">
<ele>1792.575085</ele>
<time>2026-06-13T03:11:24Z</time>
</trkpt>
<trkpt lat="35.901487" lon="138.171888">
<ele>1792.761756</ele>
<time>2026-06-13T03:13:24Z</time>
</trkpt>
<trkpt lat="35.901552" lon="138.171898">
<ele>1793.67204</ele>
<time>2026-06-13T03:15:30Z</time>
</trkpt>
<trkpt lat="35.901557" lon="138.171895">
<ele>1793.102784</ele>
<time>2026-06-13T03:17:36Z</time>
</trkpt>
<trkpt lat="35.901576" lon="138.171878">
<ele>1791.536413</ele>
<time>2026-06-13T03:38:41Z</time>
</trkpt>
<trkpt lat="35.901577" lon="138.171877">
<ele>1788.800068</ele>
<time>2026-06-13T03:40:48Z</time>
</trkpt>
<trkpt lat="35.901582" lon="138.171879">
<ele>1789.671481</ele>
<time>2026-06-13T03:59:40Z</time>
</trkpt>
<trkpt lat="35.901501" lon="138.171984">
<ele>1790.107521</ele>
<time>2026-06-13T04:01:51Z</time>
</trkpt>
<trkpt lat="35.901542" lon="138.172284">
<ele>1791.608303</ele>
<time>2026-06-13T04:03:57Z</time>
</trkpt>
<trkpt lat="35.901542" lon="138.172315">
<ele>1788.778426</ele>
<time>2026-06-13T04:06:03Z</time>
</trkpt>
<trkpt lat="35.901465" lon="138.172727">
<ele>1785.974848</ele>
<time>2026-06-13T04:06:51Z</time>
</trkpt>
<trkpt lat="35.901382" lon="138.173044">
<ele>1783.820499</ele>
<time>2026-06-13T04:07:39Z</time>
</trkpt>
<trkpt lat="35.901255" lon="138.173346">
<ele>1785.701403</ele>
<time>2026-06-13T04:09:21Z</time>
</trkpt>
<trkpt lat="35.901007" lon="138.173139">
<ele>1787.536082</ele>
<time>2026-06-13T04:10:09Z</time>
</trkpt>
<trkpt lat="35.901009" lon="138.173142">
<ele>1792.518871</ele>
<time>2026-06-13T04:12:15Z</time>
</trkpt>
<trkpt lat="35.900858" lon="138.173429">
<ele>1796.034894</ele>
<time>2026-06-13T04:13:27Z</time>
</trkpt>
<trkpt lat="35.900698" lon="138.173157">
<ele>1804.171236</ele>
<time>2026-06-13T04:14:39Z</time>
</trkpt>
<trkpt lat="35.90047" lon="138.173189">
<ele>1807.931327</ele>
<time>2026-06-13T04:16:45Z</time>
</trkpt>
<trkpt lat="35.900478" lon="138.17319">
<ele>1812.158645</ele>
<time>2026-06-13T04:18:51Z</time>
</trkpt>
<trkpt lat="35.900368" lon="138.172853">
<ele>1817.235011</ele>
<time>2026-06-13T04:19:57Z</time>
</trkpt>
<trkpt lat="35.900164" lon="138.172851">
<ele>1827.183471</ele>
<time>2026-06-13T04:22:03Z</time>
</trkpt>
<trkpt lat="35.899892" lon="138.172879">
<ele>1838.011866</ele>
<time>2026-06-13T04:23:21Z</time>
</trkpt>
<trkpt lat="35.899598" lon="138.172949">
<ele>1846.839766</ele>
<time>2026-06-13T04:24:51Z</time>
</trkpt>
<trkpt lat="35.899334" lon="138.173239">
<ele>1853.100062</ele>
<time>2026-06-13T04:25:39Z</time>
</trkpt>
<trkpt lat="35.898999" lon="138.173246">
<ele>1859.378227</ele>
<time>2026-06-13T04:26:27Z</time>
</trkpt>
<trkpt lat="35.898618" lon="138.173309">
<ele>1864.986176</ele>
<time>2026-06-13T04:27:15Z</time>
</trkpt>
<trkpt lat="35.898365" lon="138.173179">
<ele>1872.03862</ele>
<time>2026-06-13T04:28:15Z</time>
</trkpt>
<trkpt lat="35.898143" lon="138.172922">
<ele>1879.261559</ele>
<time>2026-06-13T04:29:03Z</time>
</trkpt>
<trkpt lat="35.897915" lon="138.172698">
<ele>1889.024543</ele>
<time>2026-06-13T04:30:21Z</time>
</trkpt>
<trkpt lat="35.897645" lon="138.172608">
<ele>1898.433495</ele>
<time>2026-06-13T04:31:27Z</time>
</trkpt>
<trkpt lat="35.897488" lon="138.172527">
<ele>1908.884564</ele>
<time>2026-06-13T04:33:33Z</time>
</trkpt>
<trkpt lat="35.897286" lon="138.172334">
<ele>1918.983893</ele>
<time>2026-06-13T04:35:39Z</time>
</trkpt>
<trkpt lat="35.897022" lon="138.172201">
<ele>1929.521485</ele>
<time>2026-06-13T04:37:03Z</time>
</trkpt>
<trkpt lat="35.896795" lon="138.172069">
<ele>1940.713927</ele>
<time>2026-06-13T04:39:06Z</time>
</trkpt>
<trkpt lat="35.896598" lon="138.171828">
<ele>1948.817321</ele>
<time>2026-06-13T04:40:54Z</time>
</trkpt>
<trkpt lat="35.896418" lon="138.17167">
<ele>1954.158876</ele>
<time>2026-06-13T04:42:54Z</time>
</trkpt>
<trkpt lat="35.896418" lon="138.171678">
<ele>1955.876991</ele>
<time>2026-06-13T04:45:00Z</time>
</trkpt>
<trkpt lat="35.896282" lon="138.171538">
<ele>1956.57033</ele>
<time>2026-06-13T04:47:00Z</time>
</trkpt>
<trkpt lat="35.896403" lon="138.171678">
<ele>1957.670091</ele>
<time>2026-06-13T04:49:06Z</time>
</trkpt>
<trkpt lat="35.896446" lon="138.171669">
<ele>1956.709294</ele>
<time>2026-06-13T04:51:09Z</time>
</trkpt>
<trkpt lat="35.896428" lon="138.171675">
<ele>1956.408657</ele>
<time>2026-06-13T04:53:15Z</time>
</trkpt>
<trkpt lat="35.896409" lon="138.171717">
<ele>1954.9936</ele>
<time>2026-06-13T04:55:15Z</time>
</trkpt>
<trkpt lat="35.896292" lon="138.171747">
<ele>1951.229065</ele>
<time>2026-06-13T04:57:15Z</time>
</trkpt>
<trkpt lat="35.896079" lon="138.171965">
<ele>1943.797601</ele>
<time>2026-06-13T04:58:21Z</time>
</trkpt>
<trkpt lat="35.895842" lon="138.172129">
<ele>1934.285876</ele>
<time>2026-06-13T04:59:27Z</time>
</trkpt>
<trkpt lat="35.895908" lon="138.172473">
<ele>1928.463071</ele>
<time>2026-06-13T05:00:33Z</time>
</trkpt>
<trkpt lat="35.896184" lon="138.172648">
<ele>1927.240816</ele>
<time>2026-06-13T05:01:21Z</time>
</trkpt>
<trkpt lat="35.896464" lon="138.172697">
<ele>1927.316595</ele>
<time>2026-06-13T05:02:15Z</time>
</trkpt>
<trkpt lat="35.896788" lon="138.172671">
<ele>1924.398846</ele>
<time>2026-06-13T05:03:03Z</time>
</trkpt>
<trkpt lat="35.89706" lon="138.172708">
<ele>1915.866151</ele>
<time>2026-06-13T05:03:51Z</time>
</trkpt>
<trkpt lat="35.897324" lon="138.172884">
<ele>1905.406332</ele>
<time>2026-06-13T05:05:21Z</time>
</trkpt>
<trkpt lat="35.897586" lon="138.17298">
<ele>1893.779858</ele>
<time>2026-06-13T05:06:09Z</time>
</trkpt>
<trkpt lat="35.897857" lon="138.173075">
<ele>1884.30941</ele>
<time>2026-06-13T05:07:15Z</time>
</trkpt>
<trkpt lat="35.898152" lon="138.173239">
<ele>1875.170558</ele>
<time>2026-06-13T05:08:03Z</time>
</trkpt>
<trkpt lat="35.898443" lon="138.173352">
<ele>1867.484737</ele>
<time>2026-06-13T05:09:15Z</time>
</trkpt>
<trkpt lat="35.898822" lon="138.17332">
<ele>1860.518701</ele>
<time>2026-06-13T05:10:03Z</time>
</trkpt>
<trkpt lat="35.899246" lon="138.173339">
<ele>1853.155673</ele>
<time>2026-06-13T05:10:51Z</time>
</trkpt>
<trkpt lat="35.899591" lon="138.173095">
<ele>1847.260072</ele>
<time>2026-06-13T05:11:39Z</time>
</trkpt>
<trkpt lat="35.899869" lon="138.172967">
<ele>1838.942661</ele>
<time>2026-06-13T05:12:45Z</time>
</trkpt>
<trkpt lat="35.900127" lon="138.172855">
<ele>1830.004714</ele>
<time>2026-06-13T05:14:27Z</time>
</trkpt>
<trkpt lat="35.900407" lon="138.172702">
<ele>1819.537881</ele>
<time>2026-06-13T05:15:27Z</time>
</trkpt>
<trkpt lat="35.90069" lon="138.172551">
<ele>1811.24539</ele>
<time>2026-06-13T05:16:27Z</time>
</trkpt>
<trkpt lat="35.900954" lon="138.172379">
<ele>1804.294838</ele>
<time>2026-06-13T05:17:21Z</time>
</trkpt>
<trkpt lat="35.901237" lon="138.172284">
<ele>1798.33391</ele>
<time>2026-06-13T05:18:39Z</time>
</trkpt>
<trkpt lat="35.901509" lon="138.172093">
<ele>1792.937229</ele>
<time>2026-06-13T05:19:33Z</time>
</trkpt>
<trkpt lat="35.901721" lon="138.172365">
<ele>1786.16279</ele>
<time>2026-06-13T05:20:39Z</time>
</trkpt>
<trkpt lat="35.90214" lon="138.172698">
<ele>1777.83671</ele>
<time>2026-06-13T05:21:27Z</time>
</trkpt>
<trkpt lat="35.902447" lon="138.173095">
<ele>1770.084797</ele>
<time>2026-06-13T05:22:15Z</time>
</trkpt>
<trkpt lat="35.902642" lon="138.173498">
<ele>1766.260962</ele>
<time>2026-06-13T05:23:03Z</time>
</trkpt>
<trkpt lat="35.902899" lon="138.173609">
<ele>1765.111171</ele>
<time>2026-06-13T05:23:51Z</time>
</trkpt>
<trkpt lat="35.90325" lon="138.173639">
<ele>1762.620005</ele>
<time>2026-06-13T05:24:39Z</time>
</trkpt>
<trkpt lat="35.903692" lon="138.173799">
<ele>1757.849189</ele>
<time>2026-06-13T05:25:27Z</time>
</trkpt>
<trkpt lat="35.90404" lon="138.174041">
<ele>1752.417829</ele>
<time>2026-06-13T05:26:15Z</time>
</trkpt>
<trkpt lat="35.904258" lon="138.174331">
<ele>1749.739709</ele>
<time>2026-06-13T05:27:03Z</time>
</trkpt>
<trkpt lat="35.904578" lon="138.174816">
<ele>1748.297162</ele>
<time>2026-06-13T05:27:51Z</time>
</trkpt>
<trkpt lat="35.904755" lon="138.174936">
<ele>1749.159527</ele>
<time>2026-06-13T05:35:13Z</time>
</trkpt>
<trkpt lat="35.905009" lon="138.174786">
<ele>1747.119243</ele>
<time>2026-06-13T05:37:19Z</time>
</trkpt>
<trkpt lat="35.905164" lon="138.174911">
<ele>1745.767811</ele>
<time>2026-06-13T05:39:25Z</time>
</trkpt>
<trkpt lat="35.905432" lon="138.174868">
<ele>1744.019995</ele>
<time>2026-06-13T05:40:55Z</time>
</trkpt>
<trkpt lat="35.905697" lon="138.174973">
<ele>1742.801539</ele>
<time>2026-06-13T05:42:07Z</time>
</trkpt>
<trkpt lat="35.905733" lon="138.175309">
<ele>1740.490713</ele>
<time>2026-06-13T05:43:31Z</time>
</trkpt>
<trkpt lat="35.905455" lon="138.175702">
<ele>1739.045443</ele>
<time>2026-06-13T05:44:19Z</time>
</trkpt>
<trkpt lat="35.90572" lon="138.176062">
<ele>1743.141926</ele>
<time>2026-06-13T05:45:07Z</time>
</trkpt>
<trkpt lat="35.905903" lon="138.176385">
<ele>1750.597583</ele>
<time>2026-06-13T05:45:55Z</time>
</trkpt>
<trkpt lat="35.906069" lon="138.176665">
<ele>1757.969211</ele>
<time>2026-06-13T05:47:01Z</time>
</trkpt>
<trkpt lat="35.906219" lon="138.177012">
<ele>1763.373064</ele>
<time>2026-06-13T05:47:49Z</time>
</trkpt>
<trkpt lat="35.906364" lon="138.1774">
<ele>1769.18872</ele>
<time>2026-06-13T05:48:37Z</time>
</trkpt>
<trkpt lat="35.90652" lon="138.177734">
<ele>1774.551294</ele>
<time>2026-06-13T05:49:25Z</time>
</trkpt>
<trkpt lat="35.906593" lon="138.178061">
<ele>1777.913601</ele>
<time>2026-06-13T05:50:19Z</time>
</trkpt>
<trkpt lat="35.906788" lon="138.178541">
<ele>1778.164609</ele>
<time>2026-06-13T05:51:07Z</time>
</trkpt>
<trkpt lat="35.906872" lon="138.179033">
<ele>1780.354113</ele>
<time>2026-06-13T05:51:55Z</time>
</trkpt>
<trkpt lat="35.906686" lon="138.179476">
<ele>1781.89934</ele>
<time>2026-06-13T05:52:43Z</time>
</trkpt>
<trkpt lat="35.906609" lon="138.180031">
<ele>1783.331133</ele>
<time>2026-06-13T05:53:31Z</time>
</trkpt>
<trkpt lat="35.906513" lon="138.180454">
<ele>1782.918221</ele>
<time>2026-06-13T05:54:19Z</time>
</trkpt>
<trkpt lat="35.906156" lon="138.180719">
<ele>1781.262726</ele>
<time>2026-06-13T05:55:07Z</time>
</trkpt>
<trkpt lat="35.906216" lon="138.181181">
<ele>1778.27037</ele>
<time>2026-06-13T05:55:55Z</time>
</trkpt>
<trkpt lat="35.906464" lon="138.181443">
<ele>1773.73529</ele>
<time>2026-06-13T05:57:37Z</time>
</trkpt>
<trkpt lat="35.906874" lon="138.181571">
<ele>1769.859232</ele>
<time>2026-06-13T05:58:25Z</time>
</trkpt>
<trkpt lat="35.907113" lon="138.181342">
<ele>1768.356475</ele>
<time>2026-06-13T05:59:19Z</time>
</trkpt>
<trkpt lat="35.907248" lon="138.181699">
<ele>1766.495258</ele>
<time>2026-06-13T06:00:07Z</time>
</trkpt>
<trkpt lat="35.907096" lon="138.182041">
<ele>1766.247503</ele>
<time>2026-06-13T06:02:13Z</time>
</trkpt>
<trkpt lat="35.906788" lon="138.181977">
<ele>1765.750532</ele>
<time>2026-06-13T06:03:01Z</time>
</trkpt>
<trkpt lat="35.906563" lon="138.181748">
<ele>1767.479251</ele>
<time>2026-06-13T06:04:01Z</time>
</trkpt>
<trkpt lat="35.906273" lon="138.181571">
<ele>1770.387578</ele>
<time>2026-06-13T06:04:49Z</time>
</trkpt>
<trkpt lat="35.906111" lon="138.181305">
<ele>1774.697659</ele>
<time>2026-06-13T06:05:37Z</time>
</trkpt>
<trkpt lat="35.905825" lon="138.181108">
<ele>1778.347103</ele>
<time>2026-06-13T06:06:43Z</time>
</trkpt>
<trkpt lat="35.90553" lon="138.180924">
<ele>1779.349186</ele>
<time>2026-06-13T06:07:31Z</time>
</trkpt>
<trkpt lat="35.905233" lon="138.180785">
<ele>1780.422746</ele>
<time>2026-06-13T06:08:19Z</time>
</trkpt>
<trkpt lat="35.905062" lon="138.181154">
<ele>1780.51912</ele>
<time>2026-06-13T06:09:07Z</time>
</trkpt>
<trkpt lat="35.90486" lon="138.180907">
<ele>1781.448655</ele>
<time>2026-06-13T06:09:55Z</time>
</trkpt>
</trkseg></trk></gpx>