<?xml version="1.0" encoding="UTF-8"?>
<gpx xmlns:xsi="http://www.w3.org/2001/XMLSchema-instance" xmlns="http://www.topografix.com/GPX/1/0" xsi:schemaLocation="http://www.topografix.com/GPX/1/1 http://www.topografix.com/GPX/1/1/gpx.xsd" creator="Geographica - http://geographica.biz/" appVersion="296" device="iPhone" ios="26.5" carrier="Unknown">
<trk>
<name>茅野市</name>
<trkseg>
<trkpt lat="35.970977" lon="138.172238">
<ele>843.840649</ele>
<time>2026-05-29T09:38:13Z</time>
<speed>0.230000</speed>
<trueHeading>347.740479</trueHeading>
<magneticHeading>355.974121</magneticHeading>
<gpsHeading>331.523438</gpsHeading>
<haccuracy>3.535534</haccuracy>
<vaccuracy>6.000000</vaccuracy>
<internetconnect>2</internetconnect>
</trkpt>
<trkpt lat="35.976918" lon="138.163581">
<ele>836.599194</ele>
<time>2026-05-29T09:39:20Z</time>
<speed>17.920000</speed>
<trueHeading>317.733215</trueHeading>
<magneticHeading>325.966858</magneticHeading>
<gpsHeading>310.295822</gpsHeading>
<haccuracy>39.740130</haccuracy>
<vaccuracy>24.000000</vaccuracy>
<internetconnect>2</internetconnect>
</trkpt>
<trkpt lat="35.981586" lon="138.157712">
<ele>791.912646</ele>
<time>2026-05-29T09:40:06Z</time>
<speed>7.292010</speed>
<trueHeading>317.733215</trueHeading>
<magneticHeading>325.966858</magneticHeading>
<gpsHeading>314.504242</gpsHeading>
<haccuracy>2.172785</haccuracy>
<vaccuracy>3.000000</vaccuracy>
<internetconnect>2</internetconnect>
</trkpt>
<trkpt lat="35.982516" lon="138.156656">
<ele>793.501665</ele>
<time>2026-05-29T09:40:51Z</time>
<speed>7.045353</speed>
<trueHeading>316.804260</trueHeading>
<magneticHeading>325.037903</magneticHeading>
<gpsHeading>317.445301</gpsHeading>
<haccuracy>2.299380</haccuracy>
<vaccuracy>3.000000</vaccuracy>
<internetconnect>2</internetconnect>
</trkpt>
<trkpt lat="35.983953" lon="138.155658">
<ele>786.512787</ele>
<time>2026-05-29T09:41:37Z</time>
<speed>0.000000</speed>
<trueHeading>337.794586</trueHeading>
<magneticHeading>346.028229</magneticHeading>
<gpsHeading>330.650167</gpsHeading>
<haccuracy>3.819104</haccuracy>
<vaccuracy>3.821635</vaccuracy>
<internetconnect>2</internetconnect>
</trkpt>
<trkpt lat="35.984411" lon="138.155458">
<ele>787.409036</ele>
<time>2026-05-29T09:42:23Z</time>
<speed>4.339796</speed>
<trueHeading>337.889496</trueHeading>
<magneticHeading>346.123138</magneticHeading>
<gpsHeading>340.573680</gpsHeading>
<haccuracy>3.192480</haccuracy>
<vaccuracy>3.495181</vaccuracy>
<internetconnect>2</internetconnect>
</trkpt>
<trkpt lat="35.986196" lon="138.154125">
<ele>783.973694</ele>
<time>2026-05-29T09:43:08Z</time>
<speed>3.491631</speed>
<trueHeading>322.872620</trueHeading>
<magneticHeading>331.106262</magneticHeading>
<gpsHeading>328.848227</gpsHeading>
<haccuracy>2.854363</haccuracy>
<vaccuracy>3.400477</vaccuracy>
<internetconnect>2</internetconnect>
</trkpt>
<trkpt lat="35.986599" lon="138.153519">
<ele>788.425293</ele>
<time>2026-05-29T09:43:59Z</time>
<speed>0.000000</speed>
<trueHeading>310.688782</trueHeading>
<magneticHeading>318.922424</magneticHeading>
<gpsHeading>309.389254</gpsHeading>
<haccuracy>2.801984</haccuracy>
<vaccuracy>3.107810</vaccuracy>
<internetconnect>2</internetconnect>
</trkpt>
<trkpt lat="35.986998" lon="138.152841">
<ele>790.561319</ele>
<time>2026-05-29T09:44:44Z</time>
<speed>6.442361</speed>
<trueHeading>310.688782</trueHeading>
<magneticHeading>318.922424</magneticHeading>
<gpsHeading>306.015082</gpsHeading>
<haccuracy>3.355943</haccuracy>
<vaccuracy>3.718849</vaccuracy>
<internetconnect>2</internetconnect>
</trkpt>
<trkpt lat="35.988063" lon="138.150965">
<ele>790.957486</ele>
<time>2026-05-29T09:45:33Z</time>
<speed>0.000000</speed>
<trueHeading>310.688782</trueHeading>
<magneticHeading>318.922424</magneticHeading>
<gpsHeading>305.050466</gpsHeading>
<haccuracy>3.425543</haccuracy>
<vaccuracy>3.947933</vaccuracy>
<internetconnect>2</internetconnect>
</trkpt>
<trkpt lat="35.989248" lon="138.148855">
<ele>782.207161</ele>
<time>2026-05-29T09:46:18Z</time>
<speed>9.368236</speed>
<trueHeading>310.688782</trueHeading>
<magneticHeading>318.922424</magneticHeading>
<gpsHeading>304.782562</gpsHeading>
<haccuracy>4.566425</haccuracy>
<vaccuracy>5.239002</vaccuracy>
<internetconnect>2</internetconnect>
</trkpt>
<trkpt lat="35.990193" lon="138.147360">
<ele>779.845919</ele>
<time>2026-05-29T09:47:05Z</time>
<speed>0.000000</speed>
<trueHeading>310.688782</trueHeading>
<magneticHeading>318.922424</magneticHeading>
<gpsHeading>307.985045</gpsHeading>
<haccuracy>4.748650</haccuracy>
<vaccuracy>5.827089</vaccuracy>
<internetconnect>2</internetconnect>
</trkpt>
<trkpt lat="35.990400" lon="138.147105">
<ele>785.601778</ele>
<time>2026-05-29T09:47:52Z</time>
<speed>7.058843</speed>
<trueHeading>307.748840</trueHeading>
<magneticHeading>315.982483</magneticHeading>
<gpsHeading>315.090759</gpsHeading>
<haccuracy>4.748651</haccuracy>
<vaccuracy>5.135913</vaccuracy>
<internetconnect>2</internetconnect>
</trkpt>
<trkpt lat="35.993732" lon="138.141145">
<ele>778.865061</ele>
<time>2026-05-29T09:48:38Z</time>
<speed>15.433942</speed>
<trueHeading>307.748840</trueHeading>
<magneticHeading>315.982483</magneticHeading>
<gpsHeading>304.640079</gpsHeading>
<haccuracy>4.748651</haccuracy>
<vaccuracy>6.579545</vaccuracy>
<internetconnect>2</internetconnect>
</trkpt>
<trkpt lat="35.998152" lon="138.136732">
<ele>774.049408</ele>
<time>2026-05-29T09:49:23Z</time>
<speed>15.268423</speed>
<trueHeading>322.753754</trueHeading>
<magneticHeading>330.987396</magneticHeading>
<gpsHeading>321.074651</gpsHeading>
<haccuracy>4.748651</haccuracy>
<vaccuracy>6.292133</vaccuracy>
<internetconnect>2</internetconnect>
</trkpt>
<trkpt lat="36.002257" lon="138.133644">
<ele>769.158498</ele>
<time>2026-05-29T09:50:08Z</time>
<speed>8.793318</speed>
<trueHeading>322.753754</trueHeading>
<magneticHeading>330.987396</magneticHeading>
<gpsHeading>328.673165</gpsHeading>
<haccuracy>2.511144</haccuracy>
<vaccuracy>3.183322</vaccuracy>
<internetconnect>2</internetconnect>
</trkpt>
<trkpt lat="36.004819" lon="138.131883">
<ele>768.290889</ele>
<time>2026-05-29T09:50:59Z</time>
<speed>0.000000</speed>
<trueHeading>322.753754</trueHeading>
<magneticHeading>330.987396</magneticHeading>
<gpsHeading>330.928467</gpsHeading>
<haccuracy>3.388003</haccuracy>
<vaccuracy>3.709853</vaccuracy>
<internetconnect>2</internetconnect>
</trkpt>
<trkpt lat="36.005691" lon="138.131373">
<ele>772.076474</ele>
<time>2026-05-29T09:51:44Z</time>
<speed>10.826454</speed>
<trueHeading>322.753754</trueHeading>
<magneticHeading>330.987396</magneticHeading>
<gpsHeading>334.671958</gpsHeading>
<haccuracy>3.265969</haccuracy>
<vaccuracy>3.387664</vaccuracy>
<internetconnect>2</internetconnect>
</trkpt>
<trkpt lat="36.009476" lon="138.129208">
<ele>767.629613</ele>
<time>2026-05-29T09:52:30Z</time>
<speed>10.109239</speed>
<trueHeading>322.753754</trueHeading>
<magneticHeading>330.987396</magneticHeading>
<gpsHeading>335.169495</gpsHeading>
<haccuracy>2.322894</haccuracy>
<vaccuracy>3.000000</vaccuracy>
<internetconnect>2</internetconnect>
</trkpt>
<trkpt lat="36.011998" lon="138.127748">
<ele>765.262069</ele>
<time>2026-05-29T09:53:15Z</time>
<speed>1.004331</speed>
<trueHeading>292.612488</trueHeading>
<magneticHeading>300.846130</magneticHeading>
<gpsHeading>334.910250</gpsHeading>
<haccuracy>2.496016</haccuracy>
<vaccuracy>3.000000</vaccuracy>
<internetconnect>2</internetconnect>
</trkpt>
<trkpt lat="36.012027" lon="138.127686">
<ele>768.795031</ele>
<time>2026-05-29T09:54:07Z</time>
<speed>0.000000</speed>
<trueHeading>144.585114</trueHeading>
<magneticHeading>152.818756</magneticHeading>
<gpsHeading>299.950932</gpsHeading>
<haccuracy>15.957798</haccuracy>
<vaccuracy>3.504559</vaccuracy>
<internetconnect>2</internetconnect>
</trkpt>
</trkseg></trk>
</gpx>
