<?xml version="1.0" encoding="UTF-8"?>
<gpx xmlns:xsi="http://www.w3.org/2001/XMLSchema-instance" xmlns="http://www.topografix.com/GPX/1/0" xsi:schemaLocation="http://www.topografix.com/GPX/1/1 http://www.topografix.com/GPX/1/1/gpx.xsd" creator="Geographica - http://geographica.biz/" appVersion="296" device="iPhone" ios="26.5" carrier="Unknown">
<trk>
<name>富士見町</name>
<trkseg>
<trkpt lat="35.904992" lon="138.180872">
<ele>1778.432346</ele>
<time>2026-06-13T01:58:53Z</time>
<speed>0.490000</speed>
<trueHeading>222.718369</trueHeading>
<magneticHeading>230.939880</magneticHeading>
<gpsHeading>0.000000</gpsHeading>
<haccuracy>14.000000</haccuracy>
<vaccuracy>8.000000</vaccuracy>
<internetconnect>2</internetconnect>
</trkpt>
<trkpt lat="35.905308" lon="138.180981">
<ele>1780.282139</ele>
<time>2026-06-13T02:00:19Z</time>
<speed>1.477218</speed>
<trueHeading>166.712296</trueHeading>
<magneticHeading>174.933807</magneticHeading>
<gpsHeading>0.000000</gpsHeading>
<haccuracy>4.748652</haccuracy>
<vaccuracy>4.289928</vaccuracy>
<internetconnect>2</internetconnect>
</trkpt>
<trkpt lat="35.905513" lon="138.180759">
<ele>1783.199290</ele>
<time>2026-06-13T02:02:01Z</time>
<speed>0.000000</speed>
<trueHeading>36.625572</trueHeading>
<magneticHeading>44.847080</magneticHeading>
<gpsHeading>0.000000</gpsHeading>
<haccuracy>4.748652</haccuracy>
<vaccuracy>4.498215</vaccuracy>
<internetconnect>2</internetconnect>
</trkpt>
<trkpt lat="35.905796" lon="138.180716">
<ele>1785.850197</ele>
<time>2026-06-13T02:02:49Z</time>
<speed>0.758902</speed>
<trueHeading>110.339447</trueHeading>
<magneticHeading>118.560951</magneticHeading>
<gpsHeading>0.000000</gpsHeading>
<haccuracy>4.748652</haccuracy>
<vaccuracy>3.701321</vaccuracy>
<internetconnect>2</internetconnect>
</trkpt>
<trkpt lat="35.906081" lon="138.180687">
<ele>1786.952725</ele>
<time>2026-06-13T02:04:43Z</time>
<speed>0.752170</speed>
<trueHeading>90.077759</trueHeading>
<magneticHeading>98.299271</magneticHeading>
<gpsHeading>0.000000</gpsHeading>
<haccuracy>4.748652</haccuracy>
<vaccuracy>3.000000</vaccuracy>
<internetconnect>2</internetconnect>
</trkpt>
<trkpt lat="35.906361" lon="138.180680">
<ele>1786.273483</ele>
<time>2026-06-13T02:05:43Z</time>
<speed>0.780355</speed>
<trueHeading>119.625732</trueHeading>
<magneticHeading>127.847237</magneticHeading>
<gpsHeading>0.000000</gpsHeading>
<haccuracy>4.748652</haccuracy>
<vaccuracy>3.804668</vaccuracy>
<internetconnect>2</internetconnect>
</trkpt>
<trkpt lat="35.906582" lon="138.180419">
<ele>1784.554615</ele>
<time>2026-06-13T02:06:31Z</time>
<speed>0.718949</speed>
<trueHeading>89.604568</trueHeading>
<magneticHeading>97.826080</magneticHeading>
<gpsHeading>0.000000</gpsHeading>
<haccuracy>4.748652</haccuracy>
<vaccuracy>3.903329</vaccuracy>
<internetconnect>2</internetconnect>
</trkpt>
<trkpt lat="35.906643" lon="138.180043">
<ele>1783.335236</ele>
<time>2026-06-13T02:07:25Z</time>
<speed>0.524440</speed>
<trueHeading>352.372925</trueHeading>
<magneticHeading>0.594425</magneticHeading>
<gpsHeading>0.000000</gpsHeading>
<haccuracy>4.748652</haccuracy>
<vaccuracy>3.867951</vaccuracy>
<internetconnect>2</internetconnect>
</trkpt>
<trkpt lat="35.906695" lon="138.179643">
<ele>1782.715828</ele>
<time>2026-06-13T02:08:13Z</time>
<speed>0.632424</speed>
<trueHeading>27.323868</trueHeading>
<magneticHeading>35.545376</magneticHeading>
<gpsHeading>0.000000</gpsHeading>
<haccuracy>4.748652</haccuracy>
<vaccuracy>4.083627</vaccuracy>
<internetconnect>2</internetconnect>
</trkpt>
<trkpt lat="35.906813" lon="138.179203">
<ele>1780.413860</ele>
<time>2026-06-13T02:09:01Z</time>
<speed>0.655148</speed>
<trueHeading>326.514771</trueHeading>
<magneticHeading>334.736267</magneticHeading>
<gpsHeading>0.000000</gpsHeading>
<haccuracy>4.748652</haccuracy>
<vaccuracy>3.000290</vaccuracy>
<internetconnect>2</internetconnect>
</trkpt>
<trkpt lat="35.906947" lon="138.178805">
<ele>1777.877268</ele>
<time>2026-06-13T02:09:49Z</time>
<speed>0.786872</speed>
<trueHeading>327.598236</trueHeading>
<magneticHeading>335.819733</magneticHeading>
<gpsHeading>0.000000</gpsHeading>
<haccuracy>4.748652</haccuracy>
<vaccuracy>4.145462</vaccuracy>
<internetconnect>2</internetconnect>
</trkpt>
<trkpt lat="35.906774" lon="138.178397">
<ele>1775.277562</ele>
<time>2026-06-13T02:10:37Z</time>
<speed>0.563383</speed>
<trueHeading>20.270468</trueHeading>
<magneticHeading>28.491976</magneticHeading>
<gpsHeading>0.000000</gpsHeading>
<haccuracy>4.748652</haccuracy>
<vaccuracy>3.706855</vaccuracy>
<internetconnect>2</internetconnect>
</trkpt>
<trkpt lat="35.906623" lon="138.178069">
<ele>1772.032397</ele>
<time>2026-06-13T02:11:25Z</time>
<speed>0.306560</speed>
<trueHeading>14.591709</trueHeading>
<magneticHeading>22.813217</magneticHeading>
<gpsHeading>0.000000</gpsHeading>
<haccuracy>4.748652</haccuracy>
<vaccuracy>3.893922</vaccuracy>
<internetconnect>2</internetconnect>
</trkpt>
<trkpt lat="35.906476" lon="138.177530">
<ele>1767.520888</ele>
<time>2026-06-13T02:12:13Z</time>
<speed>1.279527</speed>
<trueHeading>17.395489</trueHeading>
<magneticHeading>25.616997</magneticHeading>
<gpsHeading>0.000000</gpsHeading>
<haccuracy>4.748651</haccuracy>
<vaccuracy>4.661000</vaccuracy>
<internetconnect>2</internetconnect>
</trkpt>
<trkpt lat="35.906238" lon="138.177091">
<ele>1761.054915</ele>
<time>2026-06-13T02:13:01Z</time>
<speed>0.816179</speed>
<trueHeading>283.511353</trueHeading>
<magneticHeading>291.732849</magneticHeading>
<gpsHeading>0.000000</gpsHeading>
<haccuracy>4.748651</haccuracy>
<vaccuracy>4.863858</vaccuracy>
<internetconnect>2</internetconnect>
</trkpt>
<trkpt lat="35.906116" lon="138.176748">
<ele>1755.460643</ele>
<time>2026-06-13T02:13:55Z</time>
<speed>0.722195</speed>
<trueHeading>349.246155</trueHeading>
<magneticHeading>357.467651</magneticHeading>
<gpsHeading>0.000000</gpsHeading>
<haccuracy>4.748651</haccuracy>
<vaccuracy>3.963214</vaccuracy>
<internetconnect>2</internetconnect>
</trkpt>
<trkpt lat="35.905943" lon="138.176440">
<ele>1749.320475</ele>
<time>2026-06-13T02:15:07Z</time>
<speed>1.234645</speed>
<trueHeading>302.172607</trueHeading>
<magneticHeading>310.394104</magneticHeading>
<gpsHeading>0.000000</gpsHeading>
<haccuracy>4.748651</haccuracy>
<vaccuracy>4.400105</vaccuracy>
<internetconnect>2</internetconnect>
</trkpt>
<trkpt lat="35.905770" lon="138.176159">
<ele>1745.515494</ele>
<time>2026-06-13T02:16:07Z</time>
<speed>0.682447</speed>
<trueHeading>5.522972</trueHeading>
<magneticHeading>13.744480</magneticHeading>
<gpsHeading>0.000000</gpsHeading>
<haccuracy>4.748651</haccuracy>
<vaccuracy>4.830390</vaccuracy>
<internetconnect>2</internetconnect>
</trkpt>
<trkpt lat="35.905975" lon="138.175901">
<ele>1743.828907</ele>
<time>2026-06-13T02:18:01Z</time>
<speed>0.000000</speed>
<trueHeading>328.605042</trueHeading>
<magneticHeading>336.826538</magneticHeading>
<gpsHeading>0.000000</gpsHeading>
<haccuracy>4.748652</haccuracy>
<vaccuracy>4.959560</vaccuracy>
<internetconnect>2</internetconnect>
</trkpt>
<trkpt lat="35.906106" lon="138.175594">
<ele>1744.047252</ele>
<time>2026-06-13T02:18:55Z</time>
<speed>0.000000</speed>
<trueHeading>267.368927</trueHeading>
<magneticHeading>275.590424</magneticHeading>
<gpsHeading>0.000000</gpsHeading>
<haccuracy>4.748652</haccuracy>
<vaccuracy>5.079859</vaccuracy>
<internetconnect>2</internetconnect>
</trkpt>
<trkpt lat="35.905970" lon="138.175300">
<ele>1743.924765</ele>
<time>2026-06-13T02:19:55Z</time>
<speed>1.021825</speed>
<trueHeading>341.977539</trueHeading>
<magneticHeading>350.199036</magneticHeading>
<gpsHeading>0.000000</gpsHeading>
<haccuracy>4.748651</haccuracy>
<vaccuracy>4.591180</vaccuracy>
<internetconnect>2</internetconnect>
</trkpt>
<trkpt lat="35.905704" lon="138.175327">
<ele>1742.329336</ele>
<time>2026-06-13T02:21:55Z</time>
<speed>0.864774</speed>
<trueHeading>242.038315</trueHeading>
<magneticHeading>250.259827</magneticHeading>
<gpsHeading>0.000000</gpsHeading>
<haccuracy>4.748651</haccuracy>
<vaccuracy>5.981035</vaccuracy>
<internetconnect>2</internetconnect>
</trkpt>
<trkpt lat="35.905511" lon="138.175607">
<ele>1739.253593</ele>
<time>2026-06-13T02:22:55Z</time>
<speed>0.988989</speed>
<trueHeading>222.379700</trueHeading>
<magneticHeading>230.601212</magneticHeading>
<gpsHeading>0.000000</gpsHeading>
<haccuracy>4.748652</haccuracy>
<vaccuracy>6.162289</vaccuracy>
<internetconnect>2</internetconnect>
</trkpt>
<trkpt lat="35.905242" lon="138.175499">
<ele>1737.818187</ele>
<time>2026-06-13T02:24:37Z</time>
<speed>0.115701</speed>
<trueHeading>359.431396</trueHeading>
<magneticHeading>7.652899</magneticHeading>
<gpsHeading>0.000000</gpsHeading>
<haccuracy>4.748652</haccuracy>
<vaccuracy>5.392845</vaccuracy>
<internetconnect>2</internetconnect>
</trkpt>
<trkpt lat="35.905180" lon="138.175284">
<ele>1739.301029</ele>
<time>2026-06-13T02:26:43Z</time>
<speed>0.000000</speed>
<trueHeading>110.196701</trueHeading>
<magneticHeading>118.418213</magneticHeading>
<gpsHeading>0.000000</gpsHeading>
<haccuracy>4.748652</haccuracy>
<vaccuracy>4.258463</vaccuracy>
<internetconnect>2</internetconnect>
</trkpt>
<trkpt lat="35.905172" lon="138.174949">
<ele>1744.130344</ele>
<time>2026-06-13T02:28:29Z</time>
<speed>0.841243</speed>
<trueHeading>46.999050</trueHeading>
<magneticHeading>55.220558</magneticHeading>
<gpsHeading>0.000000</gpsHeading>
<haccuracy>4.748652</haccuracy>
<vaccuracy>4.911961</vaccuracy>
<internetconnect>2</internetconnect>
</trkpt>
<trkpt lat="35.904919" lon="138.174826">
<ele>1748.384904</ele>
<time>2026-06-13T02:29:59Z</time>
<speed>1.437114</speed>
<trueHeading>266.265961</trueHeading>
<magneticHeading>274.487457</magneticHeading>
<gpsHeading>0.000000</gpsHeading>
<haccuracy>4.748652</haccuracy>
<vaccuracy>4.791125</vaccuracy>
<internetconnect>2</internetconnect>
</trkpt>
<trkpt lat="35.904521" lon="138.174778">
<ele>1749.371164</ele>
<time>2026-06-13T02:30:47Z</time>
<speed>1.283604</speed>
<trueHeading>342.761963</trueHeading>
<magneticHeading>350.983459</magneticHeading>
<gpsHeading>0.000000</gpsHeading>
<haccuracy>4.748651</haccuracy>
<vaccuracy>5.088450</vaccuracy>
<internetconnect>2</internetconnect>
</trkpt>
<trkpt lat="35.904263" lon="138.174303">
<ele>1750.687381</ele>
<time>2026-06-13T02:31:35Z</time>
<speed>0.894914</speed>
<trueHeading>26.688030</trueHeading>
<magneticHeading>34.909538</magneticHeading>
<gpsHeading>0.000000</gpsHeading>
<haccuracy>4.748652</haccuracy>
<vaccuracy>4.341221</vaccuracy>
<internetconnect>2</internetconnect>
</trkpt>
<trkpt lat="35.904003" lon="138.173981">
<ele>1752.358005</ele>
<time>2026-06-13T02:32:23Z</time>
<speed>0.978926</speed>
<trueHeading>323.094849</trueHeading>
<magneticHeading>331.311523</magneticHeading>
<gpsHeading>0.000000</gpsHeading>
<haccuracy>4.748652</haccuracy>
<vaccuracy>4.085699</vaccuracy>
<internetconnect>2</internetconnect>
</trkpt>
<trkpt lat="35.903633" lon="138.173734">
<ele>1755.876978</ele>
<time>2026-06-13T02:33:11Z</time>
<speed>0.936882</speed>
<trueHeading>325.073334</trueHeading>
<magneticHeading>333.290009</magneticHeading>
<gpsHeading>0.000000</gpsHeading>
<haccuracy>4.748652</haccuracy>
<vaccuracy>3.433910</vaccuracy>
<internetconnect>2</internetconnect>
</trkpt>
<trkpt lat="35.903352" lon="138.173611">
<ele>1760.363034</ele>
<time>2026-06-13T02:35:11Z</time>
<speed>0.958490</speed>
<trueHeading>307.994446</trueHeading>
<magneticHeading>316.211121</magneticHeading>
<gpsHeading>0.000000</gpsHeading>
<haccuracy>4.748652</haccuracy>
<vaccuracy>3.251169</vaccuracy>
<internetconnect>2</internetconnect>
</trkpt>
<trkpt lat="35.902929" lon="138.173496">
<ele>1763.546919</ele>
<time>2026-06-13T02:35:59Z</time>
<speed>1.157973</speed>
<trueHeading>270.048401</trueHeading>
<magneticHeading>278.265076</magneticHeading>
<gpsHeading>0.000000</gpsHeading>
<haccuracy>4.748651</haccuracy>
<vaccuracy>3.620719</vaccuracy>
<internetconnect>2</internetconnect>
</trkpt>
<trkpt lat="35.902660" lon="138.173462">
<ele>1766.451584</ele>
<time>2026-06-13T02:37:11Z</time>
<speed>0.695016</speed>
<trueHeading>22.765503</trueHeading>
<magneticHeading>30.982180</magneticHeading>
<gpsHeading>0.000000</gpsHeading>
<haccuracy>4.748652</haccuracy>
<vaccuracy>4.552686</vaccuracy>
<internetconnect>2</internetconnect>
</trkpt>
<trkpt lat="35.902477" lon="138.173184">
<ele>1768.621434</ele>
<time>2026-06-13T02:38:05Z</time>
<speed>0.329073</speed>
<trueHeading>341.954468</trueHeading>
<magneticHeading>350.171143</magneticHeading>
<gpsHeading>0.000000</gpsHeading>
<haccuracy>4.748652</haccuracy>
<vaccuracy>4.278494</vaccuracy>
<internetconnect>2</internetconnect>
</trkpt>
<trkpt lat="35.902303" lon="138.172880">
<ele>1774.188570</ele>
<time>2026-06-13T02:38:59Z</time>
<speed>1.386479</speed>
<trueHeading>328.996307</trueHeading>
<magneticHeading>337.212982</magneticHeading>
<gpsHeading>0.000000</gpsHeading>
<haccuracy>4.748652</haccuracy>
<vaccuracy>3.999633</vaccuracy>
<internetconnect>2</internetconnect>
</trkpt>
<trkpt lat="35.901936" lon="138.172526">
<ele>1781.010539</ele>
<time>2026-06-13T02:39:47Z</time>
<speed>1.212489</speed>
<trueHeading>356.471069</trueHeading>
<magneticHeading>4.687735</magneticHeading>
<gpsHeading>0.000000</gpsHeading>
<haccuracy>4.748652</haccuracy>
<vaccuracy>3.346382</vaccuracy>
<internetconnect>2</internetconnect>
</trkpt>
<trkpt lat="35.901590" lon="138.172134">
<ele>1787.483901</ele>
<time>2026-06-13T02:40:35Z</time>
<speed>0.059618</speed>
<trueHeading>54.157776</trueHeading>
<magneticHeading>62.374451</magneticHeading>
<gpsHeading>0.000000</gpsHeading>
<haccuracy>4.748652</haccuracy>
<vaccuracy>4.971458</vaccuracy>
<internetconnect>2</internetconnect>
</trkpt>
<trkpt lat="35.901521" lon="138.172022">
<ele>1788.894358</ele>
<time>2026-06-13T02:42:41Z</time>
<speed>0.094267</speed>
<trueHeading>105.873917</trueHeading>
<magneticHeading>114.090591</magneticHeading>
<gpsHeading>0.000000</gpsHeading>
<haccuracy>7.412201</haccuracy>
<vaccuracy>3.000000</vaccuracy>
<internetconnect>2</internetconnect>
</trkpt>
<trkpt lat="35.901793" lon="138.171790">
<ele>1788.789180</ele>
<time>2026-06-13T02:43:59Z</time>
<speed>1.710000</speed>
<trueHeading>136.102814</trueHeading>
<magneticHeading>144.319489</magneticHeading>
<gpsHeading>0.000000</gpsHeading>
<haccuracy>28.692296</haccuracy>
<vaccuracy>12.000000</vaccuracy>
<internetconnect>2</internetconnect>
</trkpt>
<trkpt lat="35.901544" lon="138.172035">
<ele>1789.018058</ele>
<time>2026-06-13T02:44:53Z</time>
<speed>0.750000</speed>
<trueHeading>87.956177</trueHeading>
<magneticHeading>96.172852</magneticHeading>
<gpsHeading>0.000000</gpsHeading>
<haccuracy>31.138410</haccuracy>
<vaccuracy>16.000000</vaccuracy>
<internetconnect>2</internetconnect>
</trkpt>
<trkpt lat="35.901616" lon="138.171765">
<ele>1791.605577</ele>
<time>2026-06-13T02:46:57Z</time>
<speed>0.000000</speed>
<trueHeading>183.489395</trueHeading>
<magneticHeading>191.706070</magneticHeading>
<gpsHeading>0.000000</gpsHeading>
<haccuracy>22.683565</haccuracy>
<vaccuracy>8.000000</vaccuracy>
<internetconnect>2</internetconnect>
</trkpt>
<trkpt lat="35.901507" lon="138.171951">
<ele>1791.434516</ele>
<time>2026-06-13T02:48:57Z</time>
<speed>0.830372</speed>
<trueHeading>212.630142</trueHeading>
<magneticHeading>220.846817</magneticHeading>
<gpsHeading>0.000000</gpsHeading>
<haccuracy>16.541603</haccuracy>
<vaccuracy>3.000000</vaccuracy>
<internetconnect>1</internetconnect>
</trkpt>
<trkpt lat="35.901631" lon="138.171953">
<ele>1791.269519</ele>
<time>2026-06-13T02:51:03Z</time>
<speed>0.000000</speed>
<trueHeading>109.585442</trueHeading>
<magneticHeading>117.802116</magneticHeading>
<gpsHeading>0.000000</gpsHeading>
<haccuracy>23.499709</haccuracy>
<vaccuracy>6.000000</vaccuracy>
<internetconnect>1</internetconnect>
</trkpt>
<trkpt lat="35.901549" lon="138.171917">
<ele>1789.926302</ele>
<time>2026-06-13T02:53:03Z</time>
<speed>0.000000</speed>
<trueHeading>94.398117</trueHeading>
<magneticHeading>102.614792</magneticHeading>
<gpsHeading>0.000000</gpsHeading>
<haccuracy>7.056634</haccuracy>
<vaccuracy>3.000000</vaccuracy>
<internetconnect>1</internetconnect>
</trkpt>
<trkpt lat="35.901673" lon="138.171716">
<ele>1798.474317</ele>
<time>2026-06-13T02:55:06Z</time>
<speed>0.460000</speed>
<trueHeading>192.816727</trueHeading>
<magneticHeading>201.033401</magneticHeading>
<gpsHeading>0.000000</gpsHeading>
<haccuracy>34.688716</haccuracy>
<vaccuracy>16.000000</vaccuracy>
<internetconnect>1</internetconnect>
</trkpt>
<trkpt lat="35.901415" lon="138.172024">
<ele>1798.763817</ele>
<time>2026-06-13T02:56:54Z</time>
<speed>0.000000</speed>
<trueHeading>85.155403</trueHeading>
<magneticHeading>93.372078</magneticHeading>
<gpsHeading>0.000000</gpsHeading>
<haccuracy>9.376340</haccuracy>
<vaccuracy>3.000000</vaccuracy>
<internetconnect>1</internetconnect>
</trkpt>
<trkpt lat="35.901502" lon="138.171934">
<ele>1799.949181</ele>
<time>2026-06-13T02:58:54Z</time>
<speed>0.000000</speed>
<trueHeading>119.241402</trueHeading>
<magneticHeading>127.458076</magneticHeading>
<gpsHeading>0.000000</gpsHeading>
<haccuracy>8.846146</haccuracy>
<vaccuracy>3.000000</vaccuracy>
<internetconnect>1</internetconnect>
</trkpt>
<trkpt lat="35.901515" lon="138.171899">
<ele>1793.670034</ele>
<time>2026-06-13T03:01:00Z</time>
<speed>0.000000</speed>
<trueHeading>100.611931</trueHeading>
<magneticHeading>108.828606</magneticHeading>
<gpsHeading>0.000000</gpsHeading>
<haccuracy>27.427403</haccuracy>
<vaccuracy>8.000000</vaccuracy>
<internetconnect>1</internetconnect>
</trkpt>
<trkpt lat="35.901575" lon="138.171851">
<ele>1791.109658</ele>
<time>2026-06-13T03:03:06Z</time>
<speed>0.000000</speed>
<trueHeading>100.611931</trueHeading>
<magneticHeading>108.828606</magneticHeading>
<gpsHeading>0.000000</gpsHeading>
<haccuracy>3.584192</haccuracy>
<vaccuracy>6.000000</vaccuracy>
<internetconnect>1</internetconnect>
</trkpt>
<trkpt lat="35.901508" lon="138.171915">
<ele>1791.091241</ele>
<time>2026-06-13T03:05:06Z</time>
<speed>0.000000</speed>
<trueHeading>100.611931</trueHeading>
<magneticHeading>108.828606</magneticHeading>
<gpsHeading>0.000000</gpsHeading>
<haccuracy>9.523937</haccuracy>
<vaccuracy>3.000000</vaccuracy>
<internetconnect>1</internetconnect>
</trkpt>
<trkpt lat="35.901516" lon="138.171931">
<ele>1791.104335</ele>
<time>2026-06-13T03:07:12Z</time>
<speed>0.000000</speed>
<trueHeading>100.611931</trueHeading>
<magneticHeading>108.828606</magneticHeading>
<gpsHeading>0.000000</gpsHeading>
<haccuracy>7.930561</haccuracy>
<vaccuracy>3.000000</vaccuracy>
<internetconnect>1</internetconnect>
</trkpt>
<trkpt lat="35.901568" lon="138.171930">
<ele>1792.539881</ele>
<time>2026-06-13T03:09:18Z</time>
<speed>0.000000</speed>
<trueHeading>100.611931</trueHeading>
<magneticHeading>108.828606</magneticHeading>
<gpsHeading>0.000000</gpsHeading>
<haccuracy>6.554082</haccuracy>
<vaccuracy>3.000000</vaccuracy>
<internetconnect>1</internetconnect>
</trkpt>
<trkpt lat="35.901544" lon="138.171903">
<ele>1792.575085</ele>
<time>2026-06-13T03:11:24Z</time>
<speed>0.000000</speed>
<trueHeading>100.611931</trueHeading>
<magneticHeading>108.828606</magneticHeading>
<gpsHeading>0.000000</gpsHeading>
<haccuracy>5.686008</haccuracy>
<vaccuracy>3.000000</vaccuracy>
<internetconnect>1</internetconnect>
</trkpt>
<trkpt lat="35.901487" lon="138.171888">
<ele>1792.761756</ele>
<time>2026-06-13T03:13:24Z</time>
<speed>0.021139</speed>
<trueHeading>116.459206</trueHeading>
<magneticHeading>124.675880</magneticHeading>
<gpsHeading>0.000000</gpsHeading>
<haccuracy>7.301600</haccuracy>
<vaccuracy>3.000000</vaccuracy>
<internetconnect>1</internetconnect>
</trkpt>
<trkpt lat="35.901552" lon="138.171898">
<ele>1793.672040</ele>
<time>2026-06-13T03:15:30Z</time>
<speed>0.000000</speed>
<trueHeading>100.662796</trueHeading>
<magneticHeading>108.879471</magneticHeading>
<gpsHeading>0.000000</gpsHeading>
<haccuracy>25.575656</haccuracy>
<vaccuracy>8.000000</vaccuracy>
<internetconnect>1</internetconnect>
</trkpt>
<trkpt lat="35.901557" lon="138.171895">
<ele>1793.102784</ele>
<time>2026-06-13T03:17:36Z</time>
<speed>0.000000</speed>
<trueHeading>100.662796</trueHeading>
<magneticHeading>108.879471</magneticHeading>
<gpsHeading>0.000000</gpsHeading>
<haccuracy>3.451314</haccuracy>
<vaccuracy>6.000000</vaccuracy>
<internetconnect>1</internetconnect>
</trkpt>
<trkpt lat="35.901576" lon="138.171878">
<ele>1791.536413</ele>
<time>2026-06-13T03:38:41Z</time>
<speed>0.000000</speed>
<trueHeading>100.662796</trueHeading>
<magneticHeading>108.879471</magneticHeading>
<gpsHeading>0.000000</gpsHeading>
<haccuracy>2.790993</haccuracy>
<vaccuracy>12.000000</vaccuracy>
<internetconnect>1</internetconnect>
</trkpt>
<trkpt lat="35.901577" lon="138.171877">
<ele>1788.800068</ele>
<time>2026-06-13T03:40:48Z</time>
<speed>0.000000</speed>
<trueHeading>100.662796</trueHeading>
<magneticHeading>108.879471</magneticHeading>
<gpsHeading>0.000000</gpsHeading>
<haccuracy>2.733031</haccuracy>
<vaccuracy>12.000000</vaccuracy>
<internetconnect>1</internetconnect>
</trkpt>
<trkpt lat="35.901582" lon="138.171879">
<ele>1789.671481</ele>
<time>2026-06-13T03:59:40Z</time>
<speed>0.601613</speed>
<trueHeading>188.082901</trueHeading>
<magneticHeading>196.298935</magneticHeading>
<gpsHeading>0.000000</gpsHeading>
<haccuracy>11.978444</haccuracy>
<vaccuracy>30.000000</vaccuracy>
<internetconnect>1</internetconnect>
</trkpt>
<trkpt lat="35.901501" lon="138.171984">
<ele>1790.107521</ele>
<time>2026-06-13T04:01:51Z</time>
<speed>0.861790</speed>
<trueHeading>228.672333</trueHeading>
<magneticHeading>236.888367</magneticHeading>
<gpsHeading>0.000000</gpsHeading>
<haccuracy>17.350892</haccuracy>
<vaccuracy>3.025315</vaccuracy>
<internetconnect>1</internetconnect>
</trkpt>
<trkpt lat="35.901542" lon="138.172284">
<ele>1791.608303</ele>
<time>2026-06-13T04:03:57Z</time>
<speed>1.400437</speed>
<trueHeading>194.748947</trueHeading>
<magneticHeading>202.964981</magneticHeading>
<gpsHeading>0.000000</gpsHeading>
<haccuracy>4.749925</haccuracy>
<vaccuracy>5.064991</vaccuracy>
<internetconnect>1</internetconnect>
</trkpt>
<trkpt lat="35.901542" lon="138.172315">
<ele>1788.778426</ele>
<time>2026-06-13T04:06:03Z</time>
<speed>0.380697</speed>
<trueHeading>222.592606</trueHeading>
<magneticHeading>230.808640</magneticHeading>
<gpsHeading>0.000000</gpsHeading>
<haccuracy>4.748687</haccuracy>
<vaccuracy>4.980009</vaccuracy>
<internetconnect>2</internetconnect>
</trkpt>
<trkpt lat="35.901465" lon="138.172727">
<ele>1785.974848</ele>
<time>2026-06-13T04:06:51Z</time>
<speed>1.292266</speed>
<trueHeading>193.599167</trueHeading>
<magneticHeading>201.815201</magneticHeading>
<gpsHeading>0.000000</gpsHeading>
<haccuracy>4.748654</haccuracy>
<vaccuracy>4.722308</vaccuracy>
<internetconnect>2</internetconnect>
</trkpt>
<trkpt lat="35.901382" lon="138.173044">
<ele>1783.820499</ele>
<time>2026-06-13T04:07:39Z</time>
<speed>1.079268</speed>
<trueHeading>196.768417</trueHeading>
<magneticHeading>204.984451</magneticHeading>
<gpsHeading>0.000000</gpsHeading>
<haccuracy>4.748652</haccuracy>
<vaccuracy>6.038439</vaccuracy>
<internetconnect>2</internetconnect>
</trkpt>
<trkpt lat="35.901255" lon="138.173346">
<ele>1785.701403</ele>
<time>2026-06-13T04:09:21Z</time>
<speed>1.115836</speed>
<trueHeading>279.533783</trueHeading>
<magneticHeading>287.749817</magneticHeading>
<gpsHeading>0.000000</gpsHeading>
<haccuracy>4.748652</haccuracy>
<vaccuracy>5.258578</vaccuracy>
<internetconnect>2</internetconnect>
</trkpt>
<trkpt lat="35.901007" lon="138.173139">
<ele>1787.536082</ele>
<time>2026-06-13T04:10:09Z</time>
<speed>0.000000</speed>
<trueHeading>273.041901</trueHeading>
<magneticHeading>281.257935</magneticHeading>
<gpsHeading>0.000000</gpsHeading>
<haccuracy>4.748652</haccuracy>
<vaccuracy>5.173220</vaccuracy>
<internetconnect>2</internetconnect>
</trkpt>
<trkpt lat="35.901009" lon="138.173142">
<ele>1792.518871</ele>
<time>2026-06-13T04:12:15Z</time>
<speed>0.000000</speed>
<trueHeading>243.874847</trueHeading>
<magneticHeading>252.090881</magneticHeading>
<gpsHeading>0.000000</gpsHeading>
<haccuracy>4.748652</haccuracy>
<vaccuracy>4.451168</vaccuracy>
<internetconnect>2</internetconnect>
</trkpt>
<trkpt lat="35.900858" lon="138.173429">
<ele>1796.034894</ele>
<time>2026-06-13T04:13:27Z</time>
<speed>0.919010</speed>
<trueHeading>303.033478</trueHeading>
<magneticHeading>311.249512</magneticHeading>
<gpsHeading>0.000000</gpsHeading>
<haccuracy>4.748652</haccuracy>
<vaccuracy>5.873927</vaccuracy>
<internetconnect>2</internetconnect>
</trkpt>
<trkpt lat="35.900698" lon="138.173157">
<ele>1804.171236</ele>
<time>2026-06-13T04:14:39Z</time>
<speed>0.160262</speed>
<trueHeading>270.534821</trueHeading>
<magneticHeading>278.750854</magneticHeading>
<gpsHeading>0.000000</gpsHeading>
<haccuracy>4.748652</haccuracy>
<vaccuracy>4.044640</vaccuracy>
<internetconnect>2</internetconnect>
</trkpt>
<trkpt lat="35.900470" lon="138.173189">
<ele>1807.931327</ele>
<time>2026-06-13T04:16:45Z</time>
<speed>0.000000</speed>
<trueHeading>290.891418</trueHeading>
<magneticHeading>299.107452</magneticHeading>
<gpsHeading>0.000000</gpsHeading>
<haccuracy>4.748652</haccuracy>
<vaccuracy>4.783851</vaccuracy>
<internetconnect>2</internetconnect>
</trkpt>
<trkpt lat="35.900478" lon="138.173190">
<ele>1812.158645</ele>
<time>2026-06-13T04:18:51Z</time>
<speed>0.000000</speed>
<trueHeading>316.596039</trueHeading>
<magneticHeading>324.812073</magneticHeading>
<gpsHeading>0.000000</gpsHeading>
<haccuracy>4.748652</haccuracy>
<vaccuracy>4.916705</vaccuracy>
<internetconnect>2</internetconnect>
</trkpt>
<trkpt lat="35.900368" lon="138.172853">
<ele>1817.235011</ele>
<time>2026-06-13T04:19:57Z</time>
<speed>0.690951</speed>
<trueHeading>357.448151</trueHeading>
<magneticHeading>5.664173</magneticHeading>
<gpsHeading>0.000000</gpsHeading>
<haccuracy>4.748652</haccuracy>
<vaccuracy>5.125307</vaccuracy>
<internetconnect>2</internetconnect>
</trkpt>
<trkpt lat="35.900164" lon="138.172851">
<ele>1827.183471</ele>
<time>2026-06-13T04:22:03Z</time>
<speed>0.152740</speed>
<trueHeading>152.468338</trueHeading>
<magneticHeading>160.684372</magneticHeading>
<gpsHeading>0.000000</gpsHeading>
<haccuracy>4.748652</haccuracy>
<vaccuracy>4.601942</vaccuracy>
<internetconnect>2</internetconnect>
</trkpt>
<trkpt lat="35.899892" lon="138.172879">
<ele>1838.011866</ele>
<time>2026-06-13T04:23:21Z</time>
<speed>0.203398</speed>
<trueHeading>338.851532</trueHeading>
<magneticHeading>347.067566</magneticHeading>
<gpsHeading>0.000000</gpsHeading>
<haccuracy>4.748652</haccuracy>
<vaccuracy>4.586321</vaccuracy>
<internetconnect>2</internetconnect>
</trkpt>
<trkpt lat="35.899598" lon="138.172949">
<ele>1846.839766</ele>
<time>2026-06-13T04:24:51Z</time>
<speed>0.566542</speed>
<trueHeading>240.211029</trueHeading>
<magneticHeading>248.427063</magneticHeading>
<gpsHeading>0.000000</gpsHeading>
<haccuracy>4.748652</haccuracy>
<vaccuracy>4.267291</vaccuracy>
<internetconnect>2</internetconnect>
</trkpt>
<trkpt lat="35.899334" lon="138.173239">
<ele>1853.100062</ele>
<time>2026-06-13T04:25:39Z</time>
<speed>1.185531</speed>
<trueHeading>295.258331</trueHeading>
<magneticHeading>303.474365</magneticHeading>
<gpsHeading>0.000000</gpsHeading>
<haccuracy>4.748652</haccuracy>
<vaccuracy>4.440622</vaccuracy>
<internetconnect>2</internetconnect>
</trkpt>
<trkpt lat="35.898999" lon="138.173246">
<ele>1859.378227</ele>
<time>2026-06-13T04:26:27Z</time>
<speed>0.809589</speed>
<trueHeading>265.822357</trueHeading>
<magneticHeading>274.038391</magneticHeading>
<gpsHeading>0.000000</gpsHeading>
<haccuracy>4.748652</haccuracy>
<vaccuracy>4.568459</vaccuracy>
<internetconnect>2</internetconnect>
</trkpt>
<trkpt lat="35.898618" lon="138.173309">
<ele>1864.986176</ele>
<time>2026-06-13T04:27:15Z</time>
<speed>0.902313</speed>
<trueHeading>324.718475</trueHeading>
<magneticHeading>332.934509</magneticHeading>
<gpsHeading>0.000000</gpsHeading>
<haccuracy>4.748652</haccuracy>
<vaccuracy>5.042103</vaccuracy>
<internetconnect>2</internetconnect>
</trkpt>
<trkpt lat="35.898365" lon="138.173179">
<ele>1872.038620</ele>
<time>2026-06-13T04:28:15Z</time>
<speed>0.526817</speed>
<trueHeading>311.193573</trueHeading>
<magneticHeading>319.409607</magneticHeading>
<gpsHeading>0.000000</gpsHeading>
<haccuracy>4.748652</haccuracy>
<vaccuracy>4.060765</vaccuracy>
<internetconnect>2</internetconnect>
</trkpt>
<trkpt lat="35.898143" lon="138.172922">
<ele>1879.261559</ele>
<time>2026-06-13T04:29:03Z</time>
<speed>0.043283</speed>
<trueHeading>348.300964</trueHeading>
<magneticHeading>356.516998</magneticHeading>
<gpsHeading>0.000000</gpsHeading>
<haccuracy>4.748652</haccuracy>
<vaccuracy>3.865159</vaccuracy>
<internetconnect>2</internetconnect>
</trkpt>
<trkpt lat="35.897915" lon="138.172698">
<ele>1889.024543</ele>
<time>2026-06-13T04:30:21Z</time>
<speed>1.177776</speed>
<trueHeading>308.452942</trueHeading>
<magneticHeading>316.668976</magneticHeading>
<gpsHeading>0.000000</gpsHeading>
<haccuracy>4.748652</haccuracy>
<vaccuracy>3.756109</vaccuracy>
<internetconnect>2</internetconnect>
</trkpt>
<trkpt lat="35.897645" lon="138.172608">
<ele>1898.433495</ele>
<time>2026-06-13T04:31:27Z</time>
<speed>0.000000</speed>
<trueHeading>250.083099</trueHeading>
<magneticHeading>258.299133</magneticHeading>
<gpsHeading>0.000000</gpsHeading>
<haccuracy>4.748652</haccuracy>
<vaccuracy>3.953148</vaccuracy>
<internetconnect>2</internetconnect>
</trkpt>
<trkpt lat="35.897488" lon="138.172527">
<ele>1908.884564</ele>
<time>2026-06-13T04:33:33Z</time>
<speed>0.622884</speed>
<trueHeading>314.611023</trueHeading>
<magneticHeading>322.827057</magneticHeading>
<gpsHeading>0.000000</gpsHeading>
<haccuracy>4.748652</haccuracy>
<vaccuracy>4.550468</vaccuracy>
<internetconnect>2</internetconnect>
</trkpt>
<trkpt lat="35.897286" lon="138.172334">
<ele>1918.983893</ele>
<time>2026-06-13T04:35:39Z</time>
<speed>0.843818</speed>
<trueHeading>320.347076</trueHeading>
<magneticHeading>328.563110</magneticHeading>
<gpsHeading>0.000000</gpsHeading>
<haccuracy>4.748652</haccuracy>
<vaccuracy>3.984362</vaccuracy>
<internetconnect>2</internetconnect>
</trkpt>
<trkpt lat="35.897022" lon="138.172201">
<ele>1929.521485</ele>
<time>2026-06-13T04:37:03Z</time>
<speed>0.508215</speed>
<trueHeading>344.642548</trueHeading>
<magneticHeading>352.858582</magneticHeading>
<gpsHeading>0.000000</gpsHeading>
<haccuracy>4.748652</haccuracy>
<vaccuracy>4.323431</vaccuracy>
<internetconnect>2</internetconnect>
</trkpt>
<trkpt lat="35.896795" lon="138.172069">
<ele>1940.713927</ele>
<time>2026-06-13T04:39:06Z</time>
<speed>0.459933</speed>
<trueHeading>306.484467</trueHeading>
<magneticHeading>314.700500</magneticHeading>
<gpsHeading>0.000000</gpsHeading>
<haccuracy>4.748652</haccuracy>
<vaccuracy>5.210606</vaccuracy>
<internetconnect>2</internetconnect>
</trkpt>
<trkpt lat="35.896598" lon="138.171828">
<ele>1948.817321</ele>
<time>2026-06-13T04:40:54Z</time>
<speed>0.951989</speed>
<trueHeading>329.735291</trueHeading>
<magneticHeading>337.951324</magneticHeading>
<gpsHeading>0.000000</gpsHeading>
<haccuracy>4.748652</haccuracy>
<vaccuracy>4.890195</vaccuracy>
<internetconnect>2</internetconnect>
</trkpt>
<trkpt lat="35.896418" lon="138.171670">
<ele>1954.158876</ele>
<time>2026-06-13T04:42:54Z</time>
<speed>0.000000</speed>
<trueHeading>133.054611</trueHeading>
<magneticHeading>141.270645</magneticHeading>
<gpsHeading>0.000000</gpsHeading>
<haccuracy>4.748652</haccuracy>
<vaccuracy>3.922443</vaccuracy>
<internetconnect>2</internetconnect>
</trkpt>
<trkpt lat="35.896418" lon="138.171678">
<ele>1955.876991</ele>
<time>2026-06-13T04:45:00Z</time>
<speed>0.000000</speed>
<trueHeading>133.054611</trueHeading>
<magneticHeading>141.270645</magneticHeading>
<gpsHeading>0.000000</gpsHeading>
<haccuracy>4.748652</haccuracy>
<vaccuracy>4.222108</vaccuracy>
<internetconnect>2</internetconnect>
</trkpt>
<trkpt lat="35.896282" lon="138.171538">
<ele>1956.570330</ele>
<time>2026-06-13T04:47:00Z</time>
<speed>0.703263</speed>
<trueHeading>174.488968</trueHeading>
<magneticHeading>182.705002</magneticHeading>
<gpsHeading>0.000000</gpsHeading>
<haccuracy>4.748652</haccuracy>
<vaccuracy>5.102583</vaccuracy>
<internetconnect>2</internetconnect>
</trkpt>
<trkpt lat="35.896403" lon="138.171678">
<ele>1957.670091</ele>
<time>2026-06-13T04:49:06Z</time>
<speed>0.000000</speed>
<trueHeading>11.392982</trueHeading>
<magneticHeading>19.609013</magneticHeading>
<gpsHeading>0.000000</gpsHeading>
<haccuracy>4.748652</haccuracy>
<vaccuracy>4.922750</vaccuracy>
<internetconnect>2</internetconnect>
</trkpt>
<trkpt lat="35.896446" lon="138.171669">
<ele>1956.709294</ele>
<time>2026-06-13T04:51:09Z</time>
<speed>0.000000</speed>
<trueHeading>2.962998</trueHeading>
<magneticHeading>11.179029</magneticHeading>
<gpsHeading>0.000000</gpsHeading>
<haccuracy>4.748652</haccuracy>
<vaccuracy>4.502229</vaccuracy>
<internetconnect>2</internetconnect>
</trkpt>
<trkpt lat="35.896428" lon="138.171675">
<ele>1956.408657</ele>
<time>2026-06-13T04:53:15Z</time>
<speed>0.015570</speed>
<trueHeading>47.458122</trueHeading>
<magneticHeading>55.674152</magneticHeading>
<gpsHeading>0.000000</gpsHeading>
<haccuracy>4.748652</haccuracy>
<vaccuracy>4.810343</vaccuracy>
<internetconnect>2</internetconnect>
</trkpt>
<trkpt lat="35.896409" lon="138.171717">
<ele>1954.993600</ele>
<time>2026-06-13T04:55:15Z</time>
<speed>0.000000</speed>
<trueHeading>156.303970</trueHeading>
<magneticHeading>164.520004</magneticHeading>
<gpsHeading>0.000000</gpsHeading>
<haccuracy>4.748652</haccuracy>
<vaccuracy>4.249603</vaccuracy>
<internetconnect>2</internetconnect>
</trkpt>
<trkpt lat="35.896292" lon="138.171747">
<ele>1951.229065</ele>
<time>2026-06-13T04:57:15Z</time>
<speed>0.663784</speed>
<trueHeading>224.957733</trueHeading>
<magneticHeading>233.173767</magneticHeading>
<gpsHeading>0.000000</gpsHeading>
<haccuracy>4.748652</haccuracy>
<vaccuracy>4.850731</vaccuracy>
<internetconnect>2</internetconnect>
</trkpt>
<trkpt lat="35.896079" lon="138.171965">
<ele>1943.797601</ele>
<time>2026-06-13T04:58:21Z</time>
<speed>0.319162</speed>
<trueHeading>245.603699</trueHeading>
<magneticHeading>253.819733</magneticHeading>
<gpsHeading>0.000000</gpsHeading>
<haccuracy>4.748652</haccuracy>
<vaccuracy>4.048130</vaccuracy>
<internetconnect>2</internetconnect>
</trkpt>
<trkpt lat="35.895842" lon="138.172129">
<ele>1934.285876</ele>
<time>2026-06-13T04:59:27Z</time>
<speed>0.510761</speed>
<trueHeading>231.523499</trueHeading>
<magneticHeading>239.739532</magneticHeading>
<gpsHeading>0.000000</gpsHeading>
<haccuracy>4.748651</haccuracy>
<vaccuracy>3.018908</vaccuracy>
<internetconnect>2</internetconnect>
</trkpt>
<trkpt lat="35.895908" lon="138.172473">
<ele>1928.463071</ele>
<time>2026-06-13T05:00:33Z</time>
<speed>0.368185</speed>
<trueHeading>151.628250</trueHeading>
<magneticHeading>159.844284</magneticHeading>
<gpsHeading>0.000000</gpsHeading>
<haccuracy>4.748651</haccuracy>
<vaccuracy>4.512004</vaccuracy>
<internetconnect>2</internetconnect>
</trkpt>
<trkpt lat="35.896184" lon="138.172648">
<ele>1927.240816</ele>
<time>2026-06-13T05:01:21Z</time>
<speed>0.135233</speed>
<trueHeading>124.923126</trueHeading>
<magneticHeading>133.139160</magneticHeading>
<gpsHeading>0.000000</gpsHeading>
<haccuracy>4.748652</haccuracy>
<vaccuracy>3.000000</vaccuracy>
<internetconnect>2</internetconnect>
</trkpt>
<trkpt lat="35.896464" lon="138.172697">
<ele>1927.316595</ele>
<time>2026-06-13T05:02:15Z</time>
<speed>0.385260</speed>
<trueHeading>95.980309</trueHeading>
<magneticHeading>104.196342</magneticHeading>
<gpsHeading>0.000000</gpsHeading>
<haccuracy>4.748652</haccuracy>
<vaccuracy>3.691018</vaccuracy>
<internetconnect>2</internetconnect>
</trkpt>
<trkpt lat="35.896788" lon="138.172671">
<ele>1924.398846</ele>
<time>2026-06-13T05:03:03Z</time>
<speed>1.113587</speed>
<trueHeading>116.548836</trueHeading>
<magneticHeading>124.762543</magneticHeading>
<gpsHeading>0.000000</gpsHeading>
<haccuracy>4.748652</haccuracy>
<vaccuracy>3.077319</vaccuracy>
<internetconnect>2</internetconnect>
</trkpt>
<trkpt lat="35.897060" lon="138.172708">
<ele>1915.866151</ele>
<time>2026-06-13T05:03:51Z</time>
<speed>0.628677</speed>
<trueHeading>99.449898</trueHeading>
<magneticHeading>107.663605</magneticHeading>
<gpsHeading>0.000000</gpsHeading>
<haccuracy>4.748651</haccuracy>
<vaccuracy>5.141808</vaccuracy>
<internetconnect>2</internetconnect>
</trkpt>
<trkpt lat="35.897324" lon="138.172884">
<ele>1905.406332</ele>
<time>2026-06-13T05:05:21Z</time>
<speed>0.649011</speed>
<trueHeading>190.038940</trueHeading>
<magneticHeading>198.252640</magneticHeading>
<gpsHeading>0.000000</gpsHeading>
<haccuracy>4.748651</haccuracy>
<vaccuracy>4.537298</vaccuracy>
<internetconnect>2</internetconnect>
</trkpt>
<trkpt lat="35.897586" lon="138.172980">
<ele>1893.779858</ele>
<time>2026-06-13T05:06:09Z</time>
<speed>0.616936</speed>
<trueHeading>142.883514</trueHeading>
<magneticHeading>151.097214</magneticHeading>
<gpsHeading>0.000000</gpsHeading>
<haccuracy>4.748651</haccuracy>
<vaccuracy>5.113645</vaccuracy>
<internetconnect>2</internetconnect>
</trkpt>
<trkpt lat="35.897857" lon="138.173075">
<ele>1884.309410</ele>
<time>2026-06-13T05:07:15Z</time>
<speed>0.568847</speed>
<trueHeading>210.326202</trueHeading>
<magneticHeading>218.539902</magneticHeading>
<gpsHeading>0.000000</gpsHeading>
<haccuracy>4.748651</haccuracy>
<vaccuracy>5.200476</vaccuracy>
<internetconnect>2</internetconnect>
</trkpt>
<trkpt lat="35.898152" lon="138.173239">
<ele>1875.170558</ele>
<time>2026-06-13T05:08:03Z</time>
<speed>0.921238</speed>
<trueHeading>103.697876</trueHeading>
<magneticHeading>111.911583</magneticHeading>
<gpsHeading>0.000000</gpsHeading>
<haccuracy>4.748652</haccuracy>
<vaccuracy>5.264147</vaccuracy>
<internetconnect>2</internetconnect>
</trkpt>
<trkpt lat="35.898443" lon="138.173352">
<ele>1867.484737</ele>
<time>2026-06-13T05:09:15Z</time>
<speed>0.670287</speed>
<trueHeading>147.134491</trueHeading>
<magneticHeading>155.348190</magneticHeading>
<gpsHeading>0.000000</gpsHeading>
<haccuracy>4.748651</haccuracy>
<vaccuracy>5.649671</vaccuracy>
<internetconnect>2</internetconnect>
</trkpt>
<trkpt lat="35.898822" lon="138.173320">
<ele>1860.518701</ele>
<time>2026-06-13T05:10:03Z</time>
<speed>0.872973</speed>
<trueHeading>98.998619</trueHeading>
<magneticHeading>107.212326</magneticHeading>
<gpsHeading>0.000000</gpsHeading>
<haccuracy>4.748651</haccuracy>
<vaccuracy>6.281115</vaccuracy>
<internetconnect>2</internetconnect>
</trkpt>
<trkpt lat="35.899246" lon="138.173339">
<ele>1853.155673</ele>
<time>2026-06-13T05:10:51Z</time>
<speed>1.172837</speed>
<trueHeading>65.155167</trueHeading>
<magneticHeading>73.368874</magneticHeading>
<gpsHeading>0.000000</gpsHeading>
<haccuracy>4.748651</haccuracy>
<vaccuracy>5.360375</vaccuracy>
<internetconnect>2</internetconnect>
</trkpt>
<trkpt lat="35.899591" lon="138.173095">
<ele>1847.260072</ele>
<time>2026-06-13T05:11:39Z</time>
<speed>0.736422</speed>
<trueHeading>48.265850</trueHeading>
<magneticHeading>56.479557</magneticHeading>
<gpsHeading>0.000000</gpsHeading>
<haccuracy>4.748651</haccuracy>
<vaccuracy>4.882890</vaccuracy>
<internetconnect>2</internetconnect>
</trkpt>
<trkpt lat="35.899869" lon="138.172967">
<ele>1838.942661</ele>
<time>2026-06-13T05:12:45Z</time>
<speed>0.696744</speed>
<trueHeading>13.173537</trueHeading>
<magneticHeading>21.387243</magneticHeading>
<gpsHeading>0.000000</gpsHeading>
<haccuracy>4.748651</haccuracy>
<vaccuracy>4.607602</vaccuracy>
<internetconnect>2</internetconnect>
</trkpt>
<trkpt lat="35.900127" lon="138.172855">
<ele>1830.004714</ele>
<time>2026-06-13T05:14:27Z</time>
<speed>0.623824</speed>
<trueHeading>93.056488</trueHeading>
<magneticHeading>101.270195</magneticHeading>
<gpsHeading>0.000000</gpsHeading>
<haccuracy>4.748651</haccuracy>
<vaccuracy>4.704218</vaccuracy>
<internetconnect>2</internetconnect>
</trkpt>
<trkpt lat="35.900407" lon="138.172702">
<ele>1819.537881</ele>
<time>2026-06-13T05:15:27Z</time>
<speed>0.464994</speed>
<trueHeading>128.421936</trueHeading>
<magneticHeading>136.635635</magneticHeading>
<gpsHeading>0.000000</gpsHeading>
<haccuracy>4.748651</haccuracy>
<vaccuracy>5.540970</vaccuracy>
<internetconnect>2</internetconnect>
</trkpt>
<trkpt lat="35.900690" lon="138.172551">
<ele>1811.245390</ele>
<time>2026-06-13T05:16:27Z</time>
<speed>0.714814</speed>
<trueHeading>56.508743</trueHeading>
<magneticHeading>64.722450</magneticHeading>
<gpsHeading>0.000000</gpsHeading>
<haccuracy>4.748652</haccuracy>
<vaccuracy>5.377428</vaccuracy>
<internetconnect>2</internetconnect>
</trkpt>
<trkpt lat="35.900954" lon="138.172379">
<ele>1804.294838</ele>
<time>2026-06-13T05:17:21Z</time>
<speed>0.599187</speed>
<trueHeading>78.617752</trueHeading>
<magneticHeading>86.831459</magneticHeading>
<gpsHeading>0.000000</gpsHeading>
<haccuracy>4.748651</haccuracy>
<vaccuracy>4.752975</vaccuracy>
<internetconnect>2</internetconnect>
</trkpt>
<trkpt lat="35.901237" lon="138.172284">
<ele>1798.333910</ele>
<time>2026-06-13T05:18:39Z</time>
<speed>0.421858</speed>
<trueHeading>92.400681</trueHeading>
<magneticHeading>100.614388</magneticHeading>
<gpsHeading>0.000000</gpsHeading>
<haccuracy>4.748652</haccuracy>
<vaccuracy>4.708336</vaccuracy>
<internetconnect>2</internetconnect>
</trkpt>
<trkpt lat="35.901509" lon="138.172093">
<ele>1792.937229</ele>
<time>2026-06-13T05:19:33Z</time>
<speed>1.005718</speed>
<trueHeading>84.768921</trueHeading>
<magneticHeading>92.982628</magneticHeading>
<gpsHeading>0.000000</gpsHeading>
<haccuracy>4.748651</haccuracy>
<vaccuracy>4.155872</vaccuracy>
<internetconnect>1</internetconnect>
</trkpt>
<trkpt lat="35.901721" lon="138.172365">
<ele>1786.162790</ele>
<time>2026-06-13T05:20:39Z</time>
<speed>1.029069</speed>
<trueHeading>114.576256</trueHeading>
<magneticHeading>122.789963</magneticHeading>
<gpsHeading>0.000000</gpsHeading>
<haccuracy>4.748651</haccuracy>
<vaccuracy>5.393285</vaccuracy>
<internetconnect>1</internetconnect>
</trkpt>
<trkpt lat="35.902140" lon="138.172698">
<ele>1777.836710</ele>
<time>2026-06-13T05:21:27Z</time>
<speed>1.266413</speed>
<trueHeading>167.222733</trueHeading>
<magneticHeading>175.436432</magneticHeading>
<gpsHeading>0.000000</gpsHeading>
<haccuracy>4.748651</haccuracy>
<vaccuracy>5.343200</vaccuracy>
<internetconnect>2</internetconnect>
</trkpt>
<trkpt lat="35.902447" lon="138.173095">
<ele>1770.084797</ele>
<time>2026-06-13T05:22:15Z</time>
<speed>0.641621</speed>
<trueHeading>176.198532</trueHeading>
<magneticHeading>184.412231</magneticHeading>
<gpsHeading>0.000000</gpsHeading>
<haccuracy>4.748651</haccuracy>
<vaccuracy>6.544446</vaccuracy>
<internetconnect>2</internetconnect>
</trkpt>
<trkpt lat="35.902642" lon="138.173498">
<ele>1766.260962</ele>
<time>2026-06-13T05:23:03Z</time>
<speed>0.960418</speed>
<trueHeading>195.919495</trueHeading>
<magneticHeading>204.133194</magneticHeading>
<gpsHeading>0.000000</gpsHeading>
<haccuracy>4.748651</haccuracy>
<vaccuracy>6.464145</vaccuracy>
<internetconnect>2</internetconnect>
</trkpt>
<trkpt lat="35.902899" lon="138.173609">
<ele>1765.111171</ele>
<time>2026-06-13T05:23:51Z</time>
<speed>0.869793</speed>
<trueHeading>84.764519</trueHeading>
<magneticHeading>92.978226</magneticHeading>
<gpsHeading>0.000000</gpsHeading>
<haccuracy>4.748652</haccuracy>
<vaccuracy>6.684083</vaccuracy>
<internetconnect>2</internetconnect>
</trkpt>
<trkpt lat="35.903250" lon="138.173639">
<ele>1762.620005</ele>
<time>2026-06-13T05:24:39Z</time>
<speed>0.000000</speed>
<trueHeading>51.707947</trueHeading>
<magneticHeading>59.921654</magneticHeading>
<gpsHeading>0.000000</gpsHeading>
<haccuracy>4.748652</haccuracy>
<vaccuracy>5.033971</vaccuracy>
<internetconnect>2</internetconnect>
</trkpt>
<trkpt lat="35.903692" lon="138.173799">
<ele>1757.849189</ele>
<time>2026-06-13T05:25:27Z</time>
<speed>0.872277</speed>
<trueHeading>142.344589</trueHeading>
<magneticHeading>150.558289</magneticHeading>
<gpsHeading>0.000000</gpsHeading>
<haccuracy>4.748652</haccuracy>
<vaccuracy>7.123653</vaccuracy>
<internetconnect>2</internetconnect>
</trkpt>
<trkpt lat="35.904040" lon="138.174041">
<ele>1752.417829</ele>
<time>2026-06-13T05:26:15Z</time>
<speed>0.743972</speed>
<trueHeading>112.957336</trueHeading>
<magneticHeading>121.171043</magneticHeading>
<gpsHeading>0.000000</gpsHeading>
<haccuracy>4.748652</haccuracy>
<vaccuracy>7.038982</vaccuracy>
<internetconnect>2</internetconnect>
</trkpt>
<trkpt lat="35.904258" lon="138.174331">
<ele>1749.739709</ele>
<time>2026-06-13T05:27:03Z</time>
<speed>1.086770</speed>
<trueHeading>160.381393</trueHeading>
<magneticHeading>168.595093</magneticHeading>
<gpsHeading>0.000000</gpsHeading>
<haccuracy>4.748651</haccuracy>
<vaccuracy>7.272399</vaccuracy>
<internetconnect>2</internetconnect>
</trkpt>
<trkpt lat="35.904578" lon="138.174816">
<ele>1748.297162</ele>
<time>2026-06-13T05:27:51Z</time>
<speed>0.997608</speed>
<trueHeading>77.256546</trueHeading>
<magneticHeading>85.470253</magneticHeading>
<gpsHeading>0.000000</gpsHeading>
<haccuracy>4.748652</haccuracy>
<vaccuracy>6.139010</vaccuracy>
<internetconnect>2</internetconnect>
</trkpt>
<trkpt lat="35.904755" lon="138.174936">
<ele>1749.159527</ele>
<time>2026-06-13T05:35:13Z</time>
<speed>0.316989</speed>
<trueHeading>74.487152</trueHeading>
<magneticHeading>82.700859</magneticHeading>
<gpsHeading>0.000000</gpsHeading>
<haccuracy>15.133634</haccuracy>
<vaccuracy>5.554728</vaccuracy>
<internetconnect>2</internetconnect>
</trkpt>
<trkpt lat="35.905009" lon="138.174786">
<ele>1747.119243</ele>
<time>2026-06-13T05:37:19Z</time>
<speed>1.072107</speed>
<trueHeading>56.197845</trueHeading>
<magneticHeading>64.411552</magneticHeading>
<gpsHeading>0.000000</gpsHeading>
<haccuracy>4.748652</haccuracy>
<vaccuracy>5.592243</vaccuracy>
<internetconnect>2</internetconnect>
</trkpt>
<trkpt lat="35.905164" lon="138.174911">
<ele>1745.767811</ele>
<time>2026-06-13T05:39:25Z</time>
<speed>0.000000</speed>
<trueHeading>294.012970</trueHeading>
<magneticHeading>302.226685</magneticHeading>
<gpsHeading>0.000000</gpsHeading>
<haccuracy>4.748652</haccuracy>
<vaccuracy>5.615927</vaccuracy>
<internetconnect>2</internetconnect>
</trkpt>
<trkpt lat="35.905432" lon="138.174868">
<ele>1744.019995</ele>
<time>2026-06-13T05:40:55Z</time>
<speed>0.985881</speed>
<trueHeading>11.288638</trueHeading>
<magneticHeading>19.502344</magneticHeading>
<gpsHeading>0.000000</gpsHeading>
<haccuracy>4.748652</haccuracy>
<vaccuracy>5.955372</vaccuracy>
<internetconnect>2</internetconnect>
</trkpt>
<trkpt lat="35.905697" lon="138.174973">
<ele>1742.801539</ele>
<time>2026-06-13T05:42:07Z</time>
<speed>0.914255</speed>
<trueHeading>181.468155</trueHeading>
<magneticHeading>189.681854</magneticHeading>
<gpsHeading>0.000000</gpsHeading>
<haccuracy>4.748651</haccuracy>
<vaccuracy>5.839437</vaccuracy>
<internetconnect>2</internetconnect>
</trkpt>
<trkpt lat="35.905733" lon="138.175309">
<ele>1740.490713</ele>
<time>2026-06-13T05:43:31Z</time>
<speed>0.912844</speed>
<trueHeading>265.005646</trueHeading>
<magneticHeading>273.219360</magneticHeading>
<gpsHeading>0.000000</gpsHeading>
<haccuracy>4.748651</haccuracy>
<vaccuracy>5.933796</vaccuracy>
<internetconnect>2</internetconnect>
</trkpt>
<trkpt lat="35.905455" lon="138.175702">
<ele>1739.045443</ele>
<time>2026-06-13T05:44:19Z</time>
<speed>0.910436</speed>
<trueHeading>185.179352</trueHeading>
<magneticHeading>193.393051</magneticHeading>
<gpsHeading>0.000000</gpsHeading>
<haccuracy>4.748652</haccuracy>
<vaccuracy>6.505342</vaccuracy>
<internetconnect>2</internetconnect>
</trkpt>
<trkpt lat="35.905720" lon="138.176062">
<ele>1743.141926</ele>
<time>2026-06-13T05:45:07Z</time>
<speed>0.845541</speed>
<trueHeading>187.513290</trueHeading>
<magneticHeading>195.726990</magneticHeading>
<gpsHeading>0.000000</gpsHeading>
<haccuracy>4.748652</haccuracy>
<vaccuracy>6.135194</vaccuracy>
<internetconnect>2</internetconnect>
</trkpt>
<trkpt lat="35.905903" lon="138.176385">
<ele>1750.597583</ele>
<time>2026-06-13T05:45:55Z</time>
<speed>0.654081</speed>
<trueHeading>162.002502</trueHeading>
<magneticHeading>170.216202</magneticHeading>
<gpsHeading>0.000000</gpsHeading>
<haccuracy>4.748652</haccuracy>
<vaccuracy>6.305237</vaccuracy>
<internetconnect>2</internetconnect>
</trkpt>
<trkpt lat="35.906069" lon="138.176665">
<ele>1757.969211</ele>
<time>2026-06-13T05:47:01Z</time>
<speed>0.950391</speed>
<trueHeading>170.122940</trueHeading>
<magneticHeading>178.336639</magneticHeading>
<gpsHeading>0.000000</gpsHeading>
<haccuracy>4.748652</haccuracy>
<vaccuracy>5.091244</vaccuracy>
<internetconnect>2</internetconnect>
</trkpt>
<trkpt lat="35.906219" lon="138.177012">
<ele>1763.373064</ele>
<time>2026-06-13T05:47:49Z</time>
<speed>0.280633</speed>
<trueHeading>200.064774</trueHeading>
<magneticHeading>208.278473</magneticHeading>
<gpsHeading>0.000000</gpsHeading>
<haccuracy>4.748652</haccuracy>
<vaccuracy>5.357493</vaccuracy>
<internetconnect>2</internetconnect>
</trkpt>
<trkpt lat="35.906364" lon="138.177400">
<ele>1769.188720</ele>
<time>2026-06-13T05:48:37Z</time>
<speed>0.587037</speed>
<trueHeading>151.092270</trueHeading>
<magneticHeading>159.305969</magneticHeading>
<gpsHeading>0.000000</gpsHeading>
<haccuracy>4.748652</haccuracy>
<vaccuracy>5.357915</vaccuracy>
<internetconnect>2</internetconnect>
</trkpt>
<trkpt lat="35.906520" lon="138.177734">
<ele>1774.551294</ele>
<time>2026-06-13T05:49:25Z</time>
<speed>0.861767</speed>
<trueHeading>147.290878</trueHeading>
<magneticHeading>155.504578</magneticHeading>
<gpsHeading>0.000000</gpsHeading>
<haccuracy>4.748652</haccuracy>
<vaccuracy>6.283624</vaccuracy>
<internetconnect>2</internetconnect>
</trkpt>
<trkpt lat="35.906593" lon="138.178061">
<ele>1777.913601</ele>
<time>2026-06-13T05:50:19Z</time>
<speed>0.382239</speed>
<trueHeading>158.159714</trueHeading>
<magneticHeading>166.373413</magneticHeading>
<gpsHeading>0.000000</gpsHeading>
<haccuracy>4.748652</haccuracy>
<vaccuracy>3.851656</vaccuracy>
<internetconnect>2</internetconnect>
</trkpt>
<trkpt lat="35.906788" lon="138.178541">
<ele>1778.164609</ele>
<time>2026-06-13T05:51:07Z</time>
<speed>0.475280</speed>
<trueHeading>184.298462</trueHeading>
<magneticHeading>192.512161</magneticHeading>
<gpsHeading>0.000000</gpsHeading>
<haccuracy>4.748652</haccuracy>
<vaccuracy>6.008232</vaccuracy>
<internetconnect>2</internetconnect>
</trkpt>
<trkpt lat="35.906872" lon="138.179033">
<ele>1780.354113</ele>
<time>2026-06-13T05:51:55Z</time>
<speed>0.700351</speed>
<trueHeading>191.410843</trueHeading>
<magneticHeading>199.624542</magneticHeading>
<gpsHeading>0.000000</gpsHeading>
<haccuracy>4.748651</haccuracy>
<vaccuracy>5.608721</vaccuracy>
<internetconnect>2</internetconnect>
</trkpt>
<trkpt lat="35.906686" lon="138.179476">
<ele>1781.899340</ele>
<time>2026-06-13T05:52:43Z</time>
<speed>0.837286</speed>
<trueHeading>149.753601</trueHeading>
<magneticHeading>157.967300</magneticHeading>
<gpsHeading>0.000000</gpsHeading>
<haccuracy>4.748651</haccuracy>
<vaccuracy>6.673655</vaccuracy>
<internetconnect>2</internetconnect>
</trkpt>
<trkpt lat="35.906609" lon="138.180031">
<ele>1783.331133</ele>
<time>2026-06-13T05:53:31Z</time>
<speed>1.044691</speed>
<trueHeading>163.028671</trueHeading>
<magneticHeading>171.242371</magneticHeading>
<gpsHeading>0.000000</gpsHeading>
<haccuracy>4.748651</haccuracy>
<vaccuracy>5.634988</vaccuracy>
<internetconnect>2</internetconnect>
</trkpt>
<trkpt lat="35.906513" lon="138.180454">
<ele>1782.918221</ele>
<time>2026-06-13T05:54:19Z</time>
<speed>1.023755</speed>
<trueHeading>229.624985</trueHeading>
<magneticHeading>237.838684</magneticHeading>
<gpsHeading>0.000000</gpsHeading>
<haccuracy>4.748651</haccuracy>
<vaccuracy>5.635267</vaccuracy>
<internetconnect>2</internetconnect>
</trkpt>
<trkpt lat="35.906156" lon="138.180719">
<ele>1781.262726</ele>
<time>2026-06-13T05:55:07Z</time>
<speed>0.789625</speed>
<trueHeading>191.061188</trueHeading>
<magneticHeading>199.274887</magneticHeading>
<gpsHeading>0.000000</gpsHeading>
<haccuracy>4.748651</haccuracy>
<vaccuracy>5.778684</vaccuracy>
<internetconnect>2</internetconnect>
</trkpt>
<trkpt lat="35.906216" lon="138.181181">
<ele>1778.270370</ele>
<time>2026-06-13T05:55:55Z</time>
<speed>1.220041</speed>
<trueHeading>205.848526</trueHeading>
<magneticHeading>214.062225</magneticHeading>
<gpsHeading>0.000000</gpsHeading>
<haccuracy>4.748651</haccuracy>
<vaccuracy>6.538065</vaccuracy>
<internetconnect>2</internetconnect>
</trkpt>
<trkpt lat="35.906464" lon="138.181443">
<ele>1773.735290</ele>
<time>2026-06-13T05:57:37Z</time>
<speed>1.093071</speed>
<trueHeading>176.180664</trueHeading>
<magneticHeading>184.394363</magneticHeading>
<gpsHeading>0.000000</gpsHeading>
<haccuracy>4.748652</haccuracy>
<vaccuracy>5.333555</vaccuracy>
<internetconnect>2</internetconnect>
</trkpt>
<trkpt lat="35.906874" lon="138.181571">
<ele>1769.859232</ele>
<time>2026-06-13T05:58:25Z</time>
<speed>1.297775</speed>
<trueHeading>353.104065</trueHeading>
<magneticHeading>1.317769</magneticHeading>
<gpsHeading>0.000000</gpsHeading>
<haccuracy>4.748652</haccuracy>
<vaccuracy>5.917942</vaccuracy>
<internetconnect>2</internetconnect>
</trkpt>
<trkpt lat="35.907113" lon="138.181342">
<ele>1768.356475</ele>
<time>2026-06-13T05:59:19Z</time>
<speed>0.358120</speed>
<trueHeading>95.726181</trueHeading>
<magneticHeading>103.939888</magneticHeading>
<gpsHeading>0.000000</gpsHeading>
<haccuracy>4.748652</haccuracy>
<vaccuracy>4.179554</vaccuracy>
<internetconnect>2</internetconnect>
</trkpt>
<trkpt lat="35.907248" lon="138.181699">
<ele>1766.495258</ele>
<time>2026-06-13T06:00:07Z</time>
<speed>0.723950</speed>
<trueHeading>161.756882</trueHeading>
<magneticHeading>169.970581</magneticHeading>
<gpsHeading>0.000000</gpsHeading>
<haccuracy>4.748652</haccuracy>
<vaccuracy>4.588689</vaccuracy>
<internetconnect>2</internetconnect>
</trkpt>
<trkpt lat="35.907096" lon="138.182041">
<ele>1766.247503</ele>
<time>2026-06-13T06:02:13Z</time>
<speed>1.319654</speed>
<trueHeading>284.747955</trueHeading>
<magneticHeading>292.961670</magneticHeading>
<gpsHeading>0.000000</gpsHeading>
<haccuracy>4.748651</haccuracy>
<vaccuracy>5.113668</vaccuracy>
<internetconnect>2</internetconnect>
</trkpt>
<trkpt lat="35.906788" lon="138.181977">
<ele>1765.750532</ele>
<time>2026-06-13T06:03:01Z</time>
<speed>1.319243</speed>
<trueHeading>256.603485</trueHeading>
<magneticHeading>264.817200</magneticHeading>
<gpsHeading>0.000000</gpsHeading>
<haccuracy>4.748651</haccuracy>
<vaccuracy>6.079061</vaccuracy>
<internetconnect>2</internetconnect>
</trkpt>
<trkpt lat="35.906563" lon="138.181748">
<ele>1767.479251</ele>
<time>2026-06-13T06:04:01Z</time>
<speed>1.019960</speed>
<trueHeading>291.793213</trueHeading>
<magneticHeading>300.006927</magneticHeading>
<gpsHeading>0.000000</gpsHeading>
<haccuracy>4.748651</haccuracy>
<vaccuracy>6.422318</vaccuracy>
<internetconnect>2</internetconnect>
</trkpt>
<trkpt lat="35.906273" lon="138.181571">
<ele>1770.387578</ele>
<time>2026-06-13T06:04:49Z</time>
<speed>0.000000</speed>
<trueHeading>173.252502</trueHeading>
<magneticHeading>181.466202</magneticHeading>
<gpsHeading>0.000000</gpsHeading>
<haccuracy>4.748652</haccuracy>
<vaccuracy>5.369335</vaccuracy>
<internetconnect>2</internetconnect>
</trkpt>
<trkpt lat="35.906111" lon="138.181305">
<ele>1774.697659</ele>
<time>2026-06-13T06:05:37Z</time>
<speed>1.269451</speed>
<trueHeading>326.807892</trueHeading>
<magneticHeading>335.021606</magneticHeading>
<gpsHeading>0.000000</gpsHeading>
<haccuracy>4.748651</haccuracy>
<vaccuracy>6.326983</vaccuracy>
<internetconnect>2</internetconnect>
</trkpt>
<trkpt lat="35.905825" lon="138.181108">
<ele>1778.347103</ele>
<time>2026-06-13T06:06:43Z</time>
<speed>0.992628</speed>
<trueHeading>258.660339</trueHeading>
<magneticHeading>266.874054</magneticHeading>
<gpsHeading>0.000000</gpsHeading>
<haccuracy>4.748651</haccuracy>
<vaccuracy>5.838480</vaccuracy>
<internetconnect>2</internetconnect>
</trkpt>
<trkpt lat="35.905530" lon="138.180924">
<ele>1779.349186</ele>
<time>2026-06-13T06:07:31Z</time>
<speed>0.690740</speed>
<trueHeading>193.614990</trueHeading>
<magneticHeading>201.828690</magneticHeading>
<gpsHeading>0.000000</gpsHeading>
<haccuracy>4.748651</haccuracy>
<vaccuracy>6.141785</vaccuracy>
<internetconnect>2</internetconnect>
</trkpt>
<trkpt lat="35.905233" lon="138.180785">
<ele>1780.422746</ele>
<time>2026-06-13T06:08:19Z</time>
<speed>1.349087</speed>
<trueHeading>278.793732</trueHeading>
<magneticHeading>287.007446</magneticHeading>
<gpsHeading>0.000000</gpsHeading>
<haccuracy>4.748651</haccuracy>
<vaccuracy>4.105500</vaccuracy>
<internetconnect>2</internetconnect>
</trkpt>
<trkpt lat="35.905062" lon="138.181154">
<ele>1780.519120</ele>
<time>2026-06-13T06:09:07Z</time>
<speed>1.344186</speed>
<trueHeading>33.519230</trueHeading>
<magneticHeading>41.732937</magneticHeading>
<gpsHeading>0.000000</gpsHeading>
<haccuracy>12.555187</haccuracy>
<vaccuracy>3.000000</vaccuracy>
<internetconnect>2</internetconnect>
</trkpt>
<trkpt lat="35.904860" lon="138.180907">
<ele>1781.448655</ele>
<time>2026-06-13T06:09:55Z</time>
<speed>0.381527</speed>
<trueHeading>140.663406</trueHeading>
<magneticHeading>148.877106</magneticHeading>
<gpsHeading>0.000000</gpsHeading>
<haccuracy>6.548889</haccuracy>
<vaccuracy>3.000000</vaccuracy>
<internetconnect>2</internetconnect>
</trkpt>
<trkpt lat="35.904920" lon="138.181280">
<ele>1768.827695</ele>
<time>2026-06-13T06:11:56Z</time>
<speed>2.948641</speed>
<trueHeading>105.024635</trueHeading>
<magneticHeading>113.238342</magneticHeading>
<gpsHeading>0.000000</gpsHeading>
<haccuracy>4.748651</haccuracy>
<vaccuracy>3.000000</vaccuracy>
<internetconnect>2</internetconnect>
</trkpt>
<trkpt lat="35.905431" lon="138.182615">
<ele>1742.232118</ele>
<time>2026-06-13T06:12:43Z</time>
<speed>2.846640</speed>
<trueHeading>66.427383</trueHeading>
<magneticHeading>74.641090</magneticHeading>
<gpsHeading>0.000000</gpsHeading>
<haccuracy>4.748651</haccuracy>
<vaccuracy>4.403072</vaccuracy>
<internetconnect>2</internetconnect>
</trkpt>
<trkpt lat="35.905903" lon="138.183964">
<ele>1703.744813</ele>
<time>2026-06-13T06:13:30Z</time>
<speed>2.802350</speed>
<trueHeading>66.427383</trueHeading>
<magneticHeading>74.641090</magneticHeading>
<gpsHeading>0.000000</gpsHeading>
<haccuracy>4.748651</haccuracy>
<vaccuracy>4.566558</vaccuracy>
<internetconnect>2</internetconnect>
</trkpt>
<trkpt lat="35.906361" lon="138.185310">
<ele>1668.478829</ele>
<time>2026-06-13T06:14:16Z</time>
<speed>2.911866</speed>
<trueHeading>66.427383</trueHeading>
<magneticHeading>74.641090</magneticHeading>
<gpsHeading>0.000000</gpsHeading>
<haccuracy>4.748651</haccuracy>
<vaccuracy>4.848304</vaccuracy>
<internetconnect>2</internetconnect>
</trkpt>
<trkpt lat="35.906810" lon="138.186650">
<ele>1634.041042</ele>
<time>2026-06-13T06:15:01Z</time>
<speed>2.850764</speed>
<trueHeading>66.427383</trueHeading>
<magneticHeading>74.641090</magneticHeading>
<gpsHeading>0.000000</gpsHeading>
<haccuracy>4.748651</haccuracy>
<vaccuracy>4.346913</vaccuracy>
<internetconnect>2</internetconnect>
</trkpt>
<trkpt lat="35.907262" lon="138.187980">
<ele>1603.712730</ele>
<time>2026-06-13T06:15:47Z</time>
<speed>2.902404</speed>
<trueHeading>66.427383</trueHeading>
<magneticHeading>74.641090</magneticHeading>
<gpsHeading>0.000000</gpsHeading>
<haccuracy>4.748651</haccuracy>
<vaccuracy>5.531648</vaccuracy>
<internetconnect>2</internetconnect>
</trkpt>
<trkpt lat="35.907776" lon="138.189382">
<ele>1571.885862</ele>
<time>2026-06-13T06:16:34Z</time>
<speed>3.249239</speed>
<trueHeading>51.379147</trueHeading>
<magneticHeading>59.592854</magneticHeading>
<gpsHeading>0.000000</gpsHeading>
<haccuracy>4.748651</haccuracy>
<vaccuracy>4.920102</vaccuracy>
<internetconnect>2</internetconnect>
</trkpt>
<trkpt lat="35.908212" lon="138.190712">
<ele>1544.493121</ele>
<time>2026-06-13T06:17:19Z</time>
<speed>2.897750</speed>
<trueHeading>51.379147</trueHeading>
<magneticHeading>59.592854</magneticHeading>
<gpsHeading>0.000000</gpsHeading>
<haccuracy>4.748651</haccuracy>
<vaccuracy>6.320023</vaccuracy>
<internetconnect>2</internetconnect>
</trkpt>
<trkpt lat="35.908694" lon="138.192078">
<ele>1515.311779</ele>
<time>2026-06-13T06:18:05Z</time>
<speed>2.938485</speed>
<trueHeading>51.379147</trueHeading>
<magneticHeading>59.592854</magneticHeading>
<gpsHeading>0.000000</gpsHeading>
<haccuracy>4.748651</haccuracy>
<vaccuracy>5.525434</vaccuracy>
<internetconnect>2</internetconnect>
</trkpt>
<trkpt lat="35.909148" lon="138.193409">
<ele>1481.872057</ele>
<time>2026-06-13T06:18:50Z</time>
<speed>2.920601</speed>
<trueHeading>51.379147</trueHeading>
<magneticHeading>59.592854</magneticHeading>
<gpsHeading>0.000000</gpsHeading>
<haccuracy>4.748651</haccuracy>
<vaccuracy>6.022108</vaccuracy>
<internetconnect>2</internetconnect>
</trkpt>
<trkpt lat="35.909617" lon="138.194861">
<ele>1435.418215</ele>
<time>2026-06-13T06:19:40Z</time>
<speed>2.758685</speed>
<trueHeading>51.379147</trueHeading>
<magneticHeading>59.592854</magneticHeading>
<gpsHeading>0.000000</gpsHeading>
<haccuracy>4.748651</haccuracy>
<vaccuracy>5.464670</vaccuracy>
<internetconnect>2</internetconnect>
</trkpt>
<trkpt lat="35.910075" lon="138.196133">
<ele>1374.211465</ele>
<time>2026-06-13T06:20:28Z</time>
<speed>2.387528</speed>
<trueHeading>51.379147</trueHeading>
<magneticHeading>59.592854</magneticHeading>
<gpsHeading>0.000000</gpsHeading>
<haccuracy>4.748651</haccuracy>
<vaccuracy>5.857527</vaccuracy>
<internetconnect>2</internetconnect>
</trkpt>
<trkpt lat="35.910477" lon="138.197286">
<ele>1302.904182</ele>
<time>2026-06-13T06:21:16Z</time>
<speed>1.919319</speed>
<trueHeading>51.379147</trueHeading>
<magneticHeading>59.592854</magneticHeading>
<gpsHeading>0.000000</gpsHeading>
<haccuracy>4.748651</haccuracy>
<vaccuracy>6.290568</vaccuracy>
<internetconnect>2</internetconnect>
</trkpt>
<trkpt lat="35.910860" lon="138.198387">
<ele>1246.296064</ele>
<time>2026-06-13T06:22:04Z</time>
<speed>0.000000</speed>
<trueHeading>51.379147</trueHeading>
<magneticHeading>59.592854</magneticHeading>
<gpsHeading>0.000000</gpsHeading>
<haccuracy>4.748652</haccuracy>
<vaccuracy>6.230094</vaccuracy>
<internetconnect>2</internetconnect>
</trkpt>
<trkpt lat="35.911322" lon="138.199709">
<ele>1207.782584</ele>
<time>2026-06-13T06:22:49Z</time>
<speed>0.000000</speed>
<trueHeading>51.422310</trueHeading>
<magneticHeading>59.638809</magneticHeading>
<gpsHeading>0.000000</gpsHeading>
<haccuracy>4.748652</haccuracy>
<vaccuracy>4.769550</vaccuracy>
<internetconnect>2</internetconnect>
</trkpt>
<trkpt lat="35.911829" lon="138.201165">
<ele>1174.187774</ele>
<time>2026-06-13T06:23:36Z</time>
<speed>2.805975</speed>
<trueHeading>51.422310</trueHeading>
<magneticHeading>59.638809</magneticHeading>
<gpsHeading>0.000000</gpsHeading>
<haccuracy>3.871500</haccuracy>
<vaccuracy>4.315033</vaccuracy>
<internetconnect>2</internetconnect>
</trkpt>
<trkpt lat="35.912305" lon="138.202505">
<ele>1136.774717</ele>
<time>2026-06-13T06:24:23Z</time>
<speed>2.829601</speed>
<trueHeading>51.422310</trueHeading>
<magneticHeading>59.638809</magneticHeading>
<gpsHeading>0.000000</gpsHeading>
<haccuracy>2.390892</haccuracy>
<vaccuracy>3.000000</vaccuracy>
<internetconnect>2</internetconnect>
</trkpt>
<trkpt lat="35.912720" lon="138.203895">
<ele>1090.307201</ele>
<time>2026-06-13T06:25:10Z</time>
<speed>2.843078</speed>
<trueHeading>51.422310</trueHeading>
<magneticHeading>59.638809</magneticHeading>
<gpsHeading>0.000000</gpsHeading>
<haccuracy>4.237860</haccuracy>
<vaccuracy>3.000000</vaccuracy>
<internetconnect>2</internetconnect>
</trkpt>
<trkpt lat="35.912998" lon="138.204898">
<ele>1062.663691</ele>
<time>2026-06-13T06:25:59Z</time>
<speed>0.760000</speed>
<trueHeading>51.422310</trueHeading>
<magneticHeading>59.638809</magneticHeading>
<gpsHeading>0.000000</gpsHeading>
<haccuracy>26.753912</haccuracy>
<vaccuracy>4.000000</vaccuracy>
<internetconnect>2</internetconnect>
</trkpt>
<trkpt lat="35.913007" lon="138.205237">
<ele>1048.417582</ele>
<time>2026-06-13T06:26:53Z</time>
<speed>0.130909</speed>
<trueHeading>35.318710</trueHeading>
<magneticHeading>43.535213</magneticHeading>
<gpsHeading>0.000000</gpsHeading>
<haccuracy>10.153654</haccuracy>
<vaccuracy>3.509338</vaccuracy>
<internetconnect>2</internetconnect>
</trkpt>
<trkpt lat="35.912734" lon="138.205191">
<ele>1048.533989</ele>
<time>2026-06-13T06:27:41Z</time>
<speed>1.315651</speed>
<trueHeading>229.661118</trueHeading>
<magneticHeading>237.877625</magneticHeading>
<gpsHeading>0.000000</gpsHeading>
<haccuracy>5.187054</haccuracy>
<vaccuracy>5.591216</vaccuracy>
<internetconnect>2</internetconnect>
</trkpt>
<trkpt lat="35.912572" lon="138.205344">
<ele>1050.223247</ele>
<time>2026-06-13T06:28:04Z</time>
<speed>0.000000</speed>
<trueHeading>153.476700</trueHeading>
<magneticHeading>161.693207</magneticHeading>
<gpsHeading>0.000000</gpsHeading>
<haccuracy>4.723314</haccuracy>
<vaccuracy>4.180685</vaccuracy>
<internetconnect>2</internetconnect>
</trkpt>
</trkseg></trk>
</gpx>
