<?xml version="1.0" encoding="UTF-8"?>
<gpx xmlns:xsi="http://www.w3.org/2001/XMLSchema-instance" xmlns="http://www.topografix.com/GPX/1/0" xsi:schemaLocation="http://www.topografix.com/GPX/1/1 http://www.topografix.com/GPX/1/1/gpx.xsd" creator="Geographica - http://geographica.biz/" appVersion="296" device="iPhone" ios="26.5" carrier="Unknown">
<trk>
<name>下諏訪町</name>
<trkseg>
<trkpt lat="36.119934" lon="138.159750">
<ele>1646.546737</ele>
<time>2026-05-30T01:46:09Z</time>
<speed>0.180000</speed>
<trueHeading>119.532265</trueHeading>
<magneticHeading>127.817131</magneticHeading>
<gpsHeading>0.000000</gpsHeading>
<haccuracy>3.978660</haccuracy>
<vaccuracy>6.000000</vaccuracy>
<internetconnect>2</internetconnect>
</trkpt>
<trkpt lat="36.119762" lon="138.160096">
<ele>1647.162609</ele>
<time>2026-05-30T01:46:56Z</time>
<speed>1.186212</speed>
<trueHeading>10.208717</trueHeading>
<magneticHeading>18.493584</magneticHeading>
<gpsHeading>0.000000</gpsHeading>
<haccuracy>4.748651</haccuracy>
<vaccuracy>6.174622</vaccuracy>
<internetconnect>2</internetconnect>
</trkpt>
<trkpt lat="36.119840" lon="138.160540">
<ele>1650.012540</ele>
<time>2026-05-30T01:47:42Z</time>
<speed>1.329426</speed>
<trueHeading>194.809799</trueHeading>
<magneticHeading>203.094666</magneticHeading>
<gpsHeading>0.000000</gpsHeading>
<haccuracy>4.748651</haccuracy>
<vaccuracy>6.541635</vaccuracy>
<internetconnect>2</internetconnect>
</trkpt>
<trkpt lat="36.119931" lon="138.160782">
<ele>1650.597234</ele>
<time>2026-05-30T01:49:48Z</time>
<speed>0.000000</speed>
<trueHeading>55.445793</trueHeading>
<magneticHeading>63.730659</magneticHeading>
<gpsHeading>0.000000</gpsHeading>
<haccuracy>4.748652</haccuracy>
<vaccuracy>4.507407</vaccuracy>
<internetconnect>2</internetconnect>
</trkpt>
<trkpt lat="36.120218" lon="138.160702">
<ele>1652.343033</ele>
<time>2026-05-30T01:50:42Z</time>
<speed>1.217562</speed>
<trueHeading>88.302528</trueHeading>
<magneticHeading>96.587395</magneticHeading>
<gpsHeading>0.000000</gpsHeading>
<haccuracy>4.748652</haccuracy>
<vaccuracy>4.832587</vaccuracy>
<internetconnect>2</internetconnect>
</trkpt>
<trkpt lat="36.120591" lon="138.160814">
<ele>1654.372503</ele>
<time>2026-05-30T01:51:30Z</time>
<speed>1.107524</speed>
<trueHeading>89.923286</trueHeading>
<magneticHeading>98.208153</magneticHeading>
<gpsHeading>0.000000</gpsHeading>
<haccuracy>4.748652</haccuracy>
<vaccuracy>4.539044</vaccuracy>
<internetconnect>2</internetconnect>
</trkpt>
<trkpt lat="36.120891" lon="138.160944">
<ele>1659.662759</ele>
<time>2026-05-30T01:52:18Z</time>
<speed>0.135032</speed>
<trueHeading>336.565979</trueHeading>
<magneticHeading>344.850861</magneticHeading>
<gpsHeading>0.000000</gpsHeading>
<haccuracy>4.748652</haccuracy>
<vaccuracy>4.195263</vaccuracy>
<internetconnect>2</internetconnect>
</trkpt>
<trkpt lat="36.121163" lon="138.161008">
<ele>1666.263346</ele>
<time>2026-05-30T01:53:06Z</time>
<speed>0.620927</speed>
<trueHeading>48.572227</trueHeading>
<magneticHeading>56.857094</magneticHeading>
<gpsHeading>0.000000</gpsHeading>
<haccuracy>4.748652</haccuracy>
<vaccuracy>5.581399</vaccuracy>
<internetconnect>2</internetconnect>
</trkpt>
<trkpt lat="36.121427" lon="138.160901">
<ele>1671.629947</ele>
<time>2026-05-30T01:55:05Z</time>
<speed>0.890182</speed>
<trueHeading>29.990807</trueHeading>
<magneticHeading>38.275673</magneticHeading>
<gpsHeading>0.000000</gpsHeading>
<haccuracy>4.748652</haccuracy>
<vaccuracy>5.435677</vaccuracy>
<internetconnect>2</internetconnect>
</trkpt>
<trkpt lat="36.121678" lon="138.160925">
<ele>1674.115302</ele>
<time>2026-05-30T01:57:08Z</time>
<speed>0.742169</speed>
<trueHeading>332.671326</trueHeading>
<magneticHeading>340.956207</magneticHeading>
<gpsHeading>0.000000</gpsHeading>
<haccuracy>4.748652</haccuracy>
<vaccuracy>5.220431</vaccuracy>
<internetconnect>2</internetconnect>
</trkpt>
<trkpt lat="36.121995" lon="138.160920">
<ele>1674.763567</ele>
<time>2026-05-30T01:58:14Z</time>
<speed>1.148432</speed>
<trueHeading>56.419838</trueHeading>
<magneticHeading>64.704704</magneticHeading>
<gpsHeading>0.000000</gpsHeading>
<haccuracy>4.748652</haccuracy>
<vaccuracy>4.702201</vaccuracy>
<internetconnect>2</internetconnect>
</trkpt>
<trkpt lat="36.122370" lon="138.160689">
<ele>1676.166776</ele>
<time>2026-05-30T01:59:02Z</time>
<speed>0.924297</speed>
<trueHeading>68.978371</trueHeading>
<magneticHeading>77.263237</magneticHeading>
<gpsHeading>0.000000</gpsHeading>
<haccuracy>4.748652</haccuracy>
<vaccuracy>5.643840</vaccuracy>
<internetconnect>2</internetconnect>
</trkpt>
<trkpt lat="36.122630" lon="138.160495">
<ele>1679.943542</ele>
<time>2026-05-30T01:59:56Z</time>
<speed>1.004397</speed>
<trueHeading>288.698120</trueHeading>
<magneticHeading>296.982971</magneticHeading>
<gpsHeading>0.000000</gpsHeading>
<haccuracy>4.748652</haccuracy>
<vaccuracy>5.183925</vaccuracy>
<internetconnect>2</internetconnect>
</trkpt>
<trkpt lat="36.122887" lon="138.160327">
<ele>1686.926354</ele>
<time>2026-05-30T02:00:56Z</time>
<speed>0.649356</speed>
<trueHeading>89.138084</trueHeading>
<magneticHeading>97.422951</magneticHeading>
<gpsHeading>0.000000</gpsHeading>
<haccuracy>4.748652</haccuracy>
<vaccuracy>5.600350</vaccuracy>
<internetconnect>2</internetconnect>
</trkpt>
<trkpt lat="36.123157" lon="138.160174">
<ele>1695.042236</ele>
<time>2026-05-30T02:03:02Z</time>
<speed>0.061581</speed>
<trueHeading>97.065224</trueHeading>
<magneticHeading>105.350090</magneticHeading>
<gpsHeading>0.000000</gpsHeading>
<haccuracy>4.748652</haccuracy>
<vaccuracy>5.010435</vaccuracy>
<internetconnect>2</internetconnect>
</trkpt>
<trkpt lat="36.123417" lon="138.160020">
<ele>1705.186225</ele>
<time>2026-05-30T02:04:20Z</time>
<speed>0.505733</speed>
<trueHeading>136.450745</trueHeading>
<magneticHeading>144.735611</magneticHeading>
<gpsHeading>0.000000</gpsHeading>
<haccuracy>4.748652</haccuracy>
<vaccuracy>5.491012</vaccuracy>
<internetconnect>2</internetconnect>
</trkpt>
<trkpt lat="36.123670" lon="138.159843">
<ele>1712.825220</ele>
<time>2026-05-30T02:06:08Z</time>
<speed>0.834200</speed>
<trueHeading>82.111580</trueHeading>
<magneticHeading>90.396446</magneticHeading>
<gpsHeading>0.000000</gpsHeading>
<haccuracy>4.748652</haccuracy>
<vaccuracy>5.323754</vaccuracy>
<internetconnect>2</internetconnect>
</trkpt>
<trkpt lat="36.123884" lon="138.159613">
<ele>1719.574227</ele>
<time>2026-05-30T02:07:02Z</time>
<speed>0.786288</speed>
<trueHeading>6.631079</trueHeading>
<magneticHeading>14.915945</magneticHeading>
<gpsHeading>0.000000</gpsHeading>
<haccuracy>4.748652</haccuracy>
<vaccuracy>5.156641</vaccuracy>
<internetconnect>2</internetconnect>
</trkpt>
<trkpt lat="36.124035" lon="138.159316">
<ele>1726.180543</ele>
<time>2026-05-30T02:07:50Z</time>
<speed>0.952697</speed>
<trueHeading>323.233795</trueHeading>
<magneticHeading>331.520813</magneticHeading>
<gpsHeading>0.000000</gpsHeading>
<haccuracy>4.748652</haccuracy>
<vaccuracy>5.137991</vaccuracy>
<internetconnect>2</internetconnect>
</trkpt>
<trkpt lat="36.124197" lon="138.159015">
<ele>1733.715893</ele>
<time>2026-05-30T02:08:56Z</time>
<speed>0.600587</speed>
<trueHeading>336.090454</trueHeading>
<magneticHeading>344.377472</magneticHeading>
<gpsHeading>0.000000</gpsHeading>
<haccuracy>4.748652</haccuracy>
<vaccuracy>4.515321</vaccuracy>
<internetconnect>2</internetconnect>
</trkpt>
<trkpt lat="36.124305" lon="138.158661">
<ele>1742.443194</ele>
<time>2026-05-30T02:10:20Z</time>
<speed>0.781190</speed>
<trueHeading>298.553802</trueHeading>
<magneticHeading>306.840820</magneticHeading>
<gpsHeading>0.000000</gpsHeading>
<haccuracy>4.748652</haccuracy>
<vaccuracy>5.877857</vaccuracy>
<internetconnect>2</internetconnect>
</trkpt>
<trkpt lat="36.124510" lon="138.158401">
<ele>1751.231249</ele>
<time>2026-05-30T02:11:26Z</time>
<speed>0.421387</speed>
<trueHeading>337.572021</trueHeading>
<magneticHeading>345.859039</magneticHeading>
<gpsHeading>0.000000</gpsHeading>
<haccuracy>4.748652</haccuracy>
<vaccuracy>5.125091</vaccuracy>
<internetconnect>2</internetconnect>
</trkpt>
<trkpt lat="36.124754" lon="138.158220">
<ele>1759.262463</ele>
<time>2026-05-30T02:12:44Z</time>
<speed>0.352182</speed>
<trueHeading>43.405777</trueHeading>
<magneticHeading>51.692791</magneticHeading>
<gpsHeading>0.000000</gpsHeading>
<haccuracy>4.748652</haccuracy>
<vaccuracy>5.497774</vaccuracy>
<internetconnect>2</internetconnect>
</trkpt>
<trkpt lat="36.124886" lon="138.158175">
<ele>1766.458293</ele>
<time>2026-05-30T02:14:44Z</time>
<speed>0.747655</speed>
<trueHeading>25.499454</trueHeading>
<magneticHeading>33.786469</magneticHeading>
<gpsHeading>0.000000</gpsHeading>
<haccuracy>4.748652</haccuracy>
<vaccuracy>5.640702</vaccuracy>
<internetconnect>2</internetconnect>
</trkpt>
<trkpt lat="36.125154" lon="138.158054">
<ele>1771.735441</ele>
<time>2026-05-30T02:15:32Z</time>
<speed>0.657948</speed>
<trueHeading>83.196320</trueHeading>
<magneticHeading>91.483330</magneticHeading>
<gpsHeading>0.000000</gpsHeading>
<haccuracy>4.748652</haccuracy>
<vaccuracy>4.650306</vaccuracy>
<internetconnect>2</internetconnect>
</trkpt>
<trkpt lat="36.125407" lon="138.157864">
<ele>1777.533932</ele>
<time>2026-05-30T02:16:36Z</time>
<speed>0.432398</speed>
<trueHeading>132.874237</trueHeading>
<magneticHeading>141.161255</magneticHeading>
<gpsHeading>0.000000</gpsHeading>
<haccuracy>4.748652</haccuracy>
<vaccuracy>4.732068</vaccuracy>
<internetconnect>2</internetconnect>
</trkpt>
<trkpt lat="36.125654" lon="138.157692">
<ele>1781.456345</ele>
<time>2026-05-30T02:18:29Z</time>
<speed>0.445805</speed>
<trueHeading>56.863621</trueHeading>
<magneticHeading>65.150635</magneticHeading>
<gpsHeading>0.000000</gpsHeading>
<haccuracy>4.748652</haccuracy>
<vaccuracy>5.054492</vaccuracy>
<internetconnect>2</internetconnect>
</trkpt>
<trkpt lat="36.125699" lon="138.157683">
<ele>1783.682915</ele>
<time>2026-05-30T02:20:35Z</time>
<speed>0.034538</speed>
<trueHeading>131.249573</trueHeading>
<magneticHeading>139.536591</magneticHeading>
<gpsHeading>0.000000</gpsHeading>
<haccuracy>4.748652</haccuracy>
<vaccuracy>4.591446</vaccuracy>
<internetconnect>2</internetconnect>
</trkpt>
<trkpt lat="36.125685" lon="138.157647">
<ele>1782.711683</ele>
<time>2026-05-30T02:22:41Z</time>
<speed>0.322116</speed>
<trueHeading>71.735863</trueHeading>
<magneticHeading>99.393906</magneticHeading>
<gpsHeading>0.000000</gpsHeading>
<haccuracy>4.748652</haccuracy>
<vaccuracy>4.701342</vaccuracy>
<internetconnect>2</internetconnect>
</trkpt>
<trkpt lat="36.125948" lon="138.157470">
<ele>1780.697005</ele>
<time>2026-05-30T02:23:35Z</time>
<speed>0.047909</speed>
<trueHeading>303.407867</trueHeading>
<magneticHeading>311.694885</magneticHeading>
<gpsHeading>0.000000</gpsHeading>
<haccuracy>4.748652</haccuracy>
<vaccuracy>4.401689</vaccuracy>
<internetconnect>2</internetconnect>
</trkpt>
<trkpt lat="36.126164" lon="138.157254">
<ele>1779.071623</ele>
<time>2026-05-30T02:24:32Z</time>
<speed>0.938616</speed>
<trueHeading>324.412537</trueHeading>
<magneticHeading>332.699554</magneticHeading>
<gpsHeading>0.000000</gpsHeading>
<haccuracy>4.748652</haccuracy>
<vaccuracy>4.877800</vaccuracy>
<internetconnect>2</internetconnect>
</trkpt>
<trkpt lat="36.126467" lon="138.157126">
<ele>1778.742191</ele>
<time>2026-05-30T02:25:21Z</time>
<speed>0.040874</speed>
<trueHeading>336.024353</trueHeading>
<magneticHeading>344.311371</magneticHeading>
<gpsHeading>0.000000</gpsHeading>
<haccuracy>4.748652</haccuracy>
<vaccuracy>4.421259</vaccuracy>
<internetconnect>2</internetconnect>
</trkpt>
<trkpt lat="36.126741" lon="138.157182">
<ele>1779.580687</ele>
<time>2026-05-30T02:26:09Z</time>
<speed>0.078907</speed>
<trueHeading>114.385536</trueHeading>
<magneticHeading>122.672546</magneticHeading>
<gpsHeading>0.000000</gpsHeading>
<haccuracy>4.748652</haccuracy>
<vaccuracy>4.599931</vaccuracy>
<internetconnect>2</internetconnect>
</trkpt>
<trkpt lat="36.127006" lon="138.157307">
<ele>1780.955771</ele>
<time>2026-05-30T02:26:57Z</time>
<speed>1.111125</speed>
<trueHeading>35.061432</trueHeading>
<magneticHeading>43.348446</magneticHeading>
<gpsHeading>0.000000</gpsHeading>
<haccuracy>4.748652</haccuracy>
<vaccuracy>5.097645</vaccuracy>
<internetconnect>2</internetconnect>
</trkpt>
<trkpt lat="36.127256" lon="138.157469">
<ele>1783.643347</ele>
<time>2026-05-30T02:28:13Z</time>
<speed>0.932256</speed>
<trueHeading>348.707916</trueHeading>
<magneticHeading>356.994934</magneticHeading>
<gpsHeading>0.000000</gpsHeading>
<haccuracy>4.748652</haccuracy>
<vaccuracy>5.008912</vaccuracy>
<internetconnect>2</internetconnect>
</trkpt>
<trkpt lat="36.127508" lon="138.157614">
<ele>1787.557074</ele>
<time>2026-05-30T02:29:19Z</time>
<speed>0.095580</speed>
<trueHeading>210.100708</trueHeading>
<magneticHeading>218.387726</magneticHeading>
<gpsHeading>0.000000</gpsHeading>
<haccuracy>4.748652</haccuracy>
<vaccuracy>4.759665</vaccuracy>
<internetconnect>2</internetconnect>
</trkpt>
<trkpt lat="36.127758" lon="138.157804">
<ele>1791.027973</ele>
<time>2026-05-30T02:30:43Z</time>
<speed>1.108655</speed>
<trueHeading>149.539932</trueHeading>
<magneticHeading>157.826950</magneticHeading>
<gpsHeading>0.000000</gpsHeading>
<haccuracy>4.748652</haccuracy>
<vaccuracy>4.831125</vaccuracy>
<internetconnect>2</internetconnect>
</trkpt>
<trkpt lat="36.127814" lon="138.157873">
<ele>1792.375586</ele>
<time>2026-05-30T02:32:49Z</time>
<speed>0.000000</speed>
<trueHeading>101.948013</trueHeading>
<magneticHeading>110.235023</magneticHeading>
<gpsHeading>0.000000</gpsHeading>
<haccuracy>4.748652</haccuracy>
<vaccuracy>4.470261</vaccuracy>
<internetconnect>2</internetconnect>
</trkpt>
<trkpt lat="36.127945" lon="138.157750">
<ele>1790.351657</ele>
<time>2026-05-30T02:34:55Z</time>
<speed>0.971168</speed>
<trueHeading>7.629402</trueHeading>
<magneticHeading>15.916415</magneticHeading>
<gpsHeading>0.000000</gpsHeading>
<haccuracy>4.748652</haccuracy>
<vaccuracy>4.787134</vaccuracy>
<internetconnect>2</internetconnect>
</trkpt>
<trkpt lat="36.128253" lon="138.157584">
<ele>1787.065803</ele>
<time>2026-05-30T02:35:49Z</time>
<speed>1.061863</speed>
<trueHeading>323.531036</trueHeading>
<magneticHeading>331.818054</magneticHeading>
<gpsHeading>0.000000</gpsHeading>
<haccuracy>4.748652</haccuracy>
<vaccuracy>4.872393</vaccuracy>
<internetconnect>2</internetconnect>
</trkpt>
<trkpt lat="36.128566" lon="138.157417">
<ele>1783.442094</ele>
<time>2026-05-30T02:36:37Z</time>
<speed>2.093780</speed>
<trueHeading>4.812837</trueHeading>
<magneticHeading>13.099850</magneticHeading>
<gpsHeading>0.000000</gpsHeading>
<haccuracy>4.748652</haccuracy>
<vaccuracy>4.339024</vaccuracy>
<internetconnect>2</internetconnect>
</trkpt>
<trkpt lat="36.128927" lon="138.157151">
<ele>1782.918365</ele>
<time>2026-05-30T02:37:25Z</time>
<speed>1.203500</speed>
<trueHeading>8.972127</trueHeading>
<magneticHeading>17.259140</magneticHeading>
<gpsHeading>0.000000</gpsHeading>
<haccuracy>4.748652</haccuracy>
<vaccuracy>4.624225</vaccuracy>
<internetconnect>2</internetconnect>
</trkpt>
<trkpt lat="36.129210" lon="138.156998">
<ele>1786.541436</ele>
<time>2026-05-30T02:38:36Z</time>
<speed>0.986556</speed>
<trueHeading>333.068268</trueHeading>
<magneticHeading>341.355286</magneticHeading>
<gpsHeading>0.000000</gpsHeading>
<haccuracy>4.748652</haccuracy>
<vaccuracy>4.942482</vaccuracy>
<internetconnect>2</internetconnect>
</trkpt>
<trkpt lat="36.129474" lon="138.156846">
<ele>1792.857945</ele>
<time>2026-05-30T02:39:54Z</time>
<speed>0.998073</speed>
<trueHeading>318.014160</trueHeading>
<magneticHeading>326.301178</magneticHeading>
<gpsHeading>0.000000</gpsHeading>
<haccuracy>4.748652</haccuracy>
<vaccuracy>5.304148</vaccuracy>
<internetconnect>2</internetconnect>
</trkpt>
<trkpt lat="36.129564" lon="138.156484">
<ele>1797.119696</ele>
<time>2026-05-30T02:41:06Z</time>
<speed>1.266268</speed>
<trueHeading>305.523010</trueHeading>
<magneticHeading>313.810028</magneticHeading>
<gpsHeading>0.000000</gpsHeading>
<haccuracy>4.748652</haccuracy>
<vaccuracy>4.939299</vaccuracy>
<internetconnect>2</internetconnect>
</trkpt>
<trkpt lat="36.129656" lon="138.156133">
<ele>1798.249843</ele>
<time>2026-05-30T02:41:54Z</time>
<speed>0.056095</speed>
<trueHeading>208.352188</trueHeading>
<magneticHeading>216.639206</magneticHeading>
<gpsHeading>0.000000</gpsHeading>
<haccuracy>4.748652</haccuracy>
<vaccuracy>4.579540</vaccuracy>
<internetconnect>2</internetconnect>
</trkpt>
<trkpt lat="36.129735" lon="138.155786">
<ele>1796.724732</ele>
<time>2026-05-30T02:43:30Z</time>
<speed>1.115371</speed>
<trueHeading>238.983643</trueHeading>
<magneticHeading>247.270660</magneticHeading>
<gpsHeading>0.000000</gpsHeading>
<haccuracy>4.748651</haccuracy>
<vaccuracy>5.240871</vaccuracy>
<internetconnect>2</internetconnect>
</trkpt>
<trkpt lat="36.129713" lon="138.155398">
<ele>1795.399985</ele>
<time>2026-05-30T02:44:18Z</time>
<speed>0.270141</speed>
<trueHeading>113.389694</trueHeading>
<magneticHeading>121.676704</magneticHeading>
<gpsHeading>0.000000</gpsHeading>
<haccuracy>4.748652</haccuracy>
<vaccuracy>5.159453</vaccuracy>
<internetconnect>2</internetconnect>
</trkpt>
<trkpt lat="36.129677" lon="138.154952">
<ele>1796.795779</ele>
<time>2026-05-30T02:45:06Z</time>
<speed>0.766425</speed>
<trueHeading>323.571655</trueHeading>
<magneticHeading>331.858673</magneticHeading>
<gpsHeading>0.000000</gpsHeading>
<haccuracy>4.748652</haccuracy>
<vaccuracy>5.385976</vaccuracy>
<internetconnect>2</internetconnect>
</trkpt>
<trkpt lat="36.129858" lon="138.154651">
<ele>1800.074389</ele>
<time>2026-05-30T02:46:42Z</time>
<speed>1.045259</speed>
<trueHeading>324.839172</trueHeading>
<magneticHeading>333.126190</magneticHeading>
<gpsHeading>0.000000</gpsHeading>
<haccuracy>4.748652</haccuracy>
<vaccuracy>5.065719</vaccuracy>
<internetconnect>2</internetconnect>
</trkpt>
<trkpt lat="36.130038" lon="138.154475">
<ele>1802.899019</ele>
<time>2026-05-30T02:48:48Z</time>
<speed>0.000000</speed>
<trueHeading>217.149368</trueHeading>
<magneticHeading>225.436386</magneticHeading>
<gpsHeading>0.000000</gpsHeading>
<haccuracy>4.748652</haccuracy>
<vaccuracy>4.602757</vaccuracy>
<internetconnect>2</internetconnect>
</trkpt>
<trkpt lat="36.130061" lon="138.154393">
<ele>1804.208314</ele>
<time>2026-05-30T02:50:48Z</time>
<speed>0.000000</speed>
<trueHeading>139.732880</trueHeading>
<magneticHeading>148.019897</magneticHeading>
<gpsHeading>0.000000</gpsHeading>
<haccuracy>4.748652</haccuracy>
<vaccuracy>4.878542</vaccuracy>
<internetconnect>2</internetconnect>
</trkpt>
<trkpt lat="36.130060" lon="138.154482">
<ele>1804.601506</ele>
<time>2026-05-30T02:52:54Z</time>
<speed>0.000000</speed>
<trueHeading>230.728485</trueHeading>
<magneticHeading>239.015503</magneticHeading>
<gpsHeading>0.000000</gpsHeading>
<haccuracy>4.748652</haccuracy>
<vaccuracy>4.500878</vaccuracy>
<internetconnect>2</internetconnect>
</trkpt>
<trkpt lat="36.130048" lon="138.154474">
<ele>1805.402914</ele>
<time>2026-05-30T02:54:58Z</time>
<speed>0.038176</speed>
<trueHeading>175.135132</trueHeading>
<magneticHeading>183.422150</magneticHeading>
<gpsHeading>0.000000</gpsHeading>
<haccuracy>4.748652</haccuracy>
<vaccuracy>4.400032</vaccuracy>
<internetconnect>2</internetconnect>
</trkpt>
<trkpt lat="36.130069" lon="138.154430">
<ele>1804.540273</ele>
<time>2026-05-30T02:56:58Z</time>
<speed>0.041245</speed>
<trueHeading>335.981598</trueHeading>
<magneticHeading>344.268616</magneticHeading>
<gpsHeading>0.000000</gpsHeading>
<haccuracy>4.748652</haccuracy>
<vaccuracy>4.715506</vaccuracy>
<internetconnect>2</internetconnect>
</trkpt>
<trkpt lat="36.130049" lon="138.154482">
<ele>1802.697735</ele>
<time>2026-05-30T02:59:04Z</time>
<speed>0.000000</speed>
<trueHeading>344.835205</trueHeading>
<magneticHeading>353.122223</magneticHeading>
<gpsHeading>0.000000</gpsHeading>
<haccuracy>4.748652</haccuracy>
<vaccuracy>4.239823</vaccuracy>
<internetconnect>2</internetconnect>
</trkpt>
<trkpt lat="36.130052" lon="138.154408">
<ele>1802.134464</ele>
<time>2026-05-30T03:01:10Z</time>
<speed>0.000000</speed>
<trueHeading>193.245895</trueHeading>
<magneticHeading>201.532913</magneticHeading>
<gpsHeading>0.000000</gpsHeading>
<haccuracy>4.748652</haccuracy>
<vaccuracy>4.585001</vaccuracy>
<internetconnect>2</internetconnect>
</trkpt>
<trkpt lat="36.130057" lon="138.154393">
<ele>1801.642839</ele>
<time>2026-05-30T03:03:16Z</time>
<speed>0.687942</speed>
<trueHeading>277.696686</trueHeading>
<magneticHeading>285.983704</magneticHeading>
<gpsHeading>0.000000</gpsHeading>
<haccuracy>4.748652</haccuracy>
<vaccuracy>4.636054</vaccuracy>
<internetconnect>2</internetconnect>
</trkpt>
<trkpt lat="36.130039" lon="138.154442">
<ele>1801.894282</ele>
<time>2026-05-30T03:05:16Z</time>
<speed>0.018168</speed>
<trueHeading>289.705322</trueHeading>
<magneticHeading>297.992340</magneticHeading>
<gpsHeading>0.000000</gpsHeading>
<haccuracy>4.748652</haccuracy>
<vaccuracy>4.775929</vaccuracy>
<internetconnect>2</internetconnect>
</trkpt>
<trkpt lat="36.129805" lon="138.154642">
<ele>1798.821680</ele>
<time>2026-05-30T03:06:34Z</time>
<speed>1.134594</speed>
<trueHeading>68.193375</trueHeading>
<magneticHeading>76.480385</magneticHeading>
<gpsHeading>0.000000</gpsHeading>
<haccuracy>4.748652</haccuracy>
<vaccuracy>3.942596</vaccuracy>
<internetconnect>2</internetconnect>
</trkpt>
<trkpt lat="36.129655" lon="138.154954">
<ele>1796.385565</ele>
<time>2026-05-30T03:08:28Z</time>
<speed>0.937941</speed>
<trueHeading>190.242310</trueHeading>
<magneticHeading>198.529327</magneticHeading>
<gpsHeading>0.000000</gpsHeading>
<haccuracy>4.748652</haccuracy>
<vaccuracy>5.641523</vaccuracy>
<internetconnect>2</internetconnect>
</trkpt>
<trkpt lat="36.129697" lon="138.155366">
<ele>1794.343127</ele>
<time>2026-05-30T03:09:16Z</time>
<speed>0.896023</speed>
<trueHeading>215.586060</trueHeading>
<magneticHeading>223.873077</magneticHeading>
<gpsHeading>0.000000</gpsHeading>
<haccuracy>4.748652</haccuracy>
<vaccuracy>6.186310</vaccuracy>
<internetconnect>2</internetconnect>
</trkpt>
<trkpt lat="36.129731" lon="138.155748">
<ele>1794.897515</ele>
<time>2026-05-30T03:10:04Z</time>
<speed>0.960396</speed>
<trueHeading>213.213501</trueHeading>
<magneticHeading>221.500519</magneticHeading>
<gpsHeading>0.000000</gpsHeading>
<haccuracy>4.748652</haccuracy>
<vaccuracy>5.226007</vaccuracy>
<internetconnect>2</internetconnect>
</trkpt>
<trkpt lat="36.129638" lon="138.156156">
<ele>1796.033141</ele>
<time>2026-05-30T03:10:52Z</time>
<speed>0.938541</speed>
<trueHeading>222.750732</trueHeading>
<magneticHeading>231.037750</magneticHeading>
<gpsHeading>0.000000</gpsHeading>
<haccuracy>4.748652</haccuracy>
<vaccuracy>5.914865</vaccuracy>
<internetconnect>2</internetconnect>
</trkpt>
<trkpt lat="36.129524" lon="138.156535">
<ele>1795.368072</ele>
<time>2026-05-30T03:11:40Z</time>
<speed>1.029800</speed>
<trueHeading>206.550156</trueHeading>
<magneticHeading>214.837173</magneticHeading>
<gpsHeading>0.000000</gpsHeading>
<haccuracy>4.748652</haccuracy>
<vaccuracy>5.653997</vaccuracy>
<internetconnect>2</internetconnect>
</trkpt>
<trkpt lat="36.129414" lon="138.156853">
<ele>1791.622591</ele>
<time>2026-05-30T03:12:40Z</time>
<speed>0.408505</speed>
<trueHeading>303.166199</trueHeading>
<magneticHeading>311.453217</magneticHeading>
<gpsHeading>0.000000</gpsHeading>
<haccuracy>4.748652</haccuracy>
<vaccuracy>5.092881</vaccuracy>
<internetconnect>2</internetconnect>
</trkpt>
<trkpt lat="36.129150" lon="138.157004">
<ele>1786.360982</ele>
<time>2026-05-30T03:13:40Z</time>
<speed>0.711737</speed>
<trueHeading>351.800201</trueHeading>
<magneticHeading>0.087202</magneticHeading>
<gpsHeading>0.000000</gpsHeading>
<haccuracy>4.748652</haccuracy>
<vaccuracy>6.460815</vaccuracy>
<internetconnect>2</internetconnect>
</trkpt>
<trkpt lat="36.128872" lon="138.157164">
<ele>1782.941057</ele>
<time>2026-05-30T03:14:34Z</time>
<speed>0.835857</speed>
<trueHeading>226.936493</trueHeading>
<magneticHeading>235.223511</magneticHeading>
<gpsHeading>0.000000</gpsHeading>
<haccuracy>4.748652</haccuracy>
<vaccuracy>5.306117</vaccuracy>
<internetconnect>2</internetconnect>
</trkpt>
<trkpt lat="36.128485" lon="138.157402">
<ele>1784.226059</ele>
<time>2026-05-30T03:15:22Z</time>
<speed>0.000000</speed>
<trueHeading>91.380699</trueHeading>
<magneticHeading>99.667709</magneticHeading>
<gpsHeading>0.000000</gpsHeading>
<haccuracy>4.748652</haccuracy>
<vaccuracy>5.127726</vaccuracy>
<internetconnect>2</internetconnect>
</trkpt>
<trkpt lat="36.128214" lon="138.157577">
<ele>1788.262511</ele>
<time>2026-05-30T03:16:16Z</time>
<speed>0.629545</speed>
<trueHeading>122.799873</trueHeading>
<magneticHeading>131.086884</magneticHeading>
<gpsHeading>0.000000</gpsHeading>
<haccuracy>4.748652</haccuracy>
<vaccuracy>6.241155</vaccuracy>
<internetconnect>2</internetconnect>
</trkpt>
<trkpt lat="36.127957" lon="138.157720">
<ele>1790.773116</ele>
<time>2026-05-30T03:17:10Z</time>
<speed>1.145306</speed>
<trueHeading>169.189117</trueHeading>
<magneticHeading>177.476135</magneticHeading>
<gpsHeading>0.000000</gpsHeading>
<haccuracy>4.748652</haccuracy>
<vaccuracy>4.860536</vaccuracy>
<internetconnect>2</internetconnect>
</trkpt>
<trkpt lat="36.127637" lon="138.157678">
<ele>1789.910867</ele>
<time>2026-05-30T03:18:46Z</time>
<speed>1.069885</speed>
<trueHeading>8.172673</trueHeading>
<magneticHeading>16.459686</magneticHeading>
<gpsHeading>0.000000</gpsHeading>
<haccuracy>4.748651</haccuracy>
<vaccuracy>5.582375</vaccuracy>
<internetconnect>2</internetconnect>
</trkpt>
<trkpt lat="36.127295" lon="138.157414">
<ele>1784.957670</ele>
<time>2026-05-30T03:19:34Z</time>
<speed>0.886864</speed>
<trueHeading>345.110260</trueHeading>
<magneticHeading>353.397278</magneticHeading>
<gpsHeading>0.000000</gpsHeading>
<haccuracy>4.748651</haccuracy>
<vaccuracy>5.672988</vaccuracy>
<internetconnect>2</internetconnect>
</trkpt>
<trkpt lat="36.127036" lon="138.157298">
<ele>1781.339119</ele>
<time>2026-05-30T03:20:22Z</time>
<speed>1.078750</speed>
<trueHeading>331.667969</trueHeading>
<magneticHeading>339.954987</magneticHeading>
<gpsHeading>0.000000</gpsHeading>
<haccuracy>4.748651</haccuracy>
<vaccuracy>6.030497</vaccuracy>
<internetconnect>2</internetconnect>
</trkpt>
<trkpt lat="36.126658" lon="138.157145">
<ele>1779.162523</ele>
<time>2026-05-30T03:21:10Z</time>
<speed>0.971342</speed>
<trueHeading>324.972717</trueHeading>
<magneticHeading>333.259735</magneticHeading>
<gpsHeading>0.000000</gpsHeading>
<haccuracy>4.748651</haccuracy>
<vaccuracy>6.521340</vaccuracy>
<internetconnect>2</internetconnect>
</trkpt>
<trkpt lat="36.126263" lon="138.157205">
<ele>1778.935401</ele>
<time>2026-05-30T03:21:58Z</time>
<speed>0.749855</speed>
<trueHeading>292.948151</trueHeading>
<magneticHeading>301.235168</magneticHeading>
<gpsHeading>0.000000</gpsHeading>
<haccuracy>4.748652</haccuracy>
<vaccuracy>6.035289</vaccuracy>
<internetconnect>2</internetconnect>
</trkpt>
<trkpt lat="36.125944" lon="138.157475">
<ele>1780.361888</ele>
<time>2026-05-30T03:22:46Z</time>
<speed>1.198927</speed>
<trueHeading>276.861847</trueHeading>
<magneticHeading>285.149628</magneticHeading>
<gpsHeading>0.000000</gpsHeading>
<haccuracy>4.748652</haccuracy>
<vaccuracy>6.577459</vaccuracy>
<internetconnect>2</internetconnect>
</trkpt>
<trkpt lat="36.125667" lon="138.157649">
<ele>1780.529473</ele>
<time>2026-05-30T03:23:40Z</time>
<speed>0.697388</speed>
<trueHeading>252.185501</trueHeading>
<magneticHeading>260.473267</magneticHeading>
<gpsHeading>0.000000</gpsHeading>
<haccuracy>4.748652</haccuracy>
<vaccuracy>6.095939</vaccuracy>
<internetconnect>2</internetconnect>
</trkpt>
<trkpt lat="36.125364" lon="138.157867">
<ele>1778.443404</ele>
<time>2026-05-30T03:24:28Z</time>
<speed>0.738911</speed>
<trueHeading>266.227478</trueHeading>
<magneticHeading>274.515259</magneticHeading>
<gpsHeading>0.000000</gpsHeading>
<haccuracy>4.748651</haccuracy>
<vaccuracy>6.936085</vaccuracy>
<internetconnect>2</internetconnect>
</trkpt>
<trkpt lat="36.125051" lon="138.158075">
<ele>1772.717058</ele>
<time>2026-05-30T03:25:16Z</time>
<speed>1.404326</speed>
<trueHeading>316.936340</trueHeading>
<magneticHeading>325.224121</magneticHeading>
<gpsHeading>0.000000</gpsHeading>
<haccuracy>4.748651</haccuracy>
<vaccuracy>6.598819</vaccuracy>
<internetconnect>2</internetconnect>
</trkpt>
<trkpt lat="36.124789" lon="138.158179">
<ele>1765.004079</ele>
<time>2026-05-30T03:26:28Z</time>
<speed>0.652346</speed>
<trueHeading>260.476837</trueHeading>
<magneticHeading>268.764618</magneticHeading>
<gpsHeading>0.000000</gpsHeading>
<haccuracy>4.748652</haccuracy>
<vaccuracy>5.956618</vaccuracy>
<internetconnect>2</internetconnect>
</trkpt>
<trkpt lat="36.124565" lon="138.158404">
<ele>1755.938488</ele>
<time>2026-05-30T03:27:40Z</time>
<speed>0.736305</speed>
<trueHeading>229.352798</trueHeading>
<magneticHeading>237.640564</magneticHeading>
<gpsHeading>0.000000</gpsHeading>
<haccuracy>4.748651</haccuracy>
<vaccuracy>5.168138</vaccuracy>
<internetconnect>2</internetconnect>
</trkpt>
<trkpt lat="36.124328" lon="138.158591">
<ele>1747.328874</ele>
<time>2026-05-30T03:28:28Z</time>
<speed>1.174389</speed>
<trueHeading>289.968750</trueHeading>
<magneticHeading>298.256531</magneticHeading>
<gpsHeading>0.000000</gpsHeading>
<haccuracy>4.748652</haccuracy>
<vaccuracy>6.503471</vaccuracy>
<internetconnect>2</internetconnect>
</trkpt>
<trkpt lat="36.124213" lon="138.158895">
<ele>1738.633621</ele>
<time>2026-05-30T03:29:34Z</time>
<speed>0.059340</speed>
<trueHeading>36.617039</trueHeading>
<magneticHeading>44.904804</magneticHeading>
<gpsHeading>0.000000</gpsHeading>
<haccuracy>4.748652</haccuracy>
<vaccuracy>5.157638</vaccuracy>
<internetconnect>2</internetconnect>
</trkpt>
<trkpt lat="36.124130" lon="138.159218">
<ele>1731.355938</ele>
<time>2026-05-30T03:30:46Z</time>
<speed>0.791830</speed>
<trueHeading>228.625534</trueHeading>
<magneticHeading>236.913300</magneticHeading>
<gpsHeading>0.000000</gpsHeading>
<haccuracy>4.748651</haccuracy>
<vaccuracy>6.233046</vaccuracy>
<internetconnect>2</internetconnect>
</trkpt>
<trkpt lat="36.123920" lon="138.159518">
<ele>1724.340506</ele>
<time>2026-05-30T03:31:34Z</time>
<speed>0.903119</speed>
<trueHeading>279.658386</trueHeading>
<magneticHeading>287.946167</magneticHeading>
<gpsHeading>0.000000</gpsHeading>
<haccuracy>4.748652</haccuracy>
<vaccuracy>5.807154</vaccuracy>
<internetconnect>2</internetconnect>
</trkpt>
<trkpt lat="36.123729" lon="138.159782">
<ele>1717.995885</ele>
<time>2026-05-30T03:32:22Z</time>
<speed>0.000000</speed>
<trueHeading>153.610199</trueHeading>
<magneticHeading>161.897964</magneticHeading>
<gpsHeading>0.000000</gpsHeading>
<haccuracy>4.748652</haccuracy>
<vaccuracy>4.502821</vaccuracy>
<internetconnect>2</internetconnect>
</trkpt>
<trkpt lat="36.123533" lon="138.160031">
<ele>1711.858660</ele>
<time>2026-05-30T03:33:16Z</time>
<speed>0.328802</speed>
<trueHeading>27.437321</trueHeading>
<magneticHeading>35.725086</magneticHeading>
<gpsHeading>0.000000</gpsHeading>
<haccuracy>4.748652</haccuracy>
<vaccuracy>5.888384</vaccuracy>
<internetconnect>2</internetconnect>
</trkpt>
<trkpt lat="36.123256" lon="138.160107">
<ele>1703.616894</ele>
<time>2026-05-30T03:34:10Z</time>
<speed>0.817302</speed>
<trueHeading>263.509583</trueHeading>
<magneticHeading>271.797363</magneticHeading>
<gpsHeading>0.000000</gpsHeading>
<haccuracy>4.748651</haccuracy>
<vaccuracy>5.929193</vaccuracy>
<internetconnect>2</internetconnect>
</trkpt>
<trkpt lat="36.122973" lon="138.160282">
<ele>1695.567032</ele>
<time>2026-05-30T03:34:58Z</time>
<speed>0.777895</speed>
<trueHeading>1.903371</trueHeading>
<magneticHeading>10.191137</magneticHeading>
<gpsHeading>0.000000</gpsHeading>
<haccuracy>4.748651</haccuracy>
<vaccuracy>5.917824</vaccuracy>
<internetconnect>2</internetconnect>
</trkpt>
<trkpt lat="36.122703" lon="138.160446">
<ele>1687.462879</ele>
<time>2026-05-30T03:36:04Z</time>
<speed>0.739497</speed>
<trueHeading>275.050720</trueHeading>
<magneticHeading>283.338501</magneticHeading>
<gpsHeading>0.000000</gpsHeading>
<haccuracy>4.748651</haccuracy>
<vaccuracy>5.750014</vaccuracy>
<internetconnect>2</internetconnect>
</trkpt>
<trkpt lat="36.122343" lon="138.160672">
<ele>1681.844916</ele>
<time>2026-05-30T03:36:52Z</time>
<speed>0.821668</speed>
<trueHeading>292.051788</trueHeading>
<magneticHeading>300.339569</magneticHeading>
<gpsHeading>0.000000</gpsHeading>
<haccuracy>4.748652</haccuracy>
<vaccuracy>6.219772</vaccuracy>
<internetconnect>2</internetconnect>
</trkpt>
<trkpt lat="36.121920" lon="138.160882">
<ele>1678.642021</ele>
<time>2026-05-30T03:37:40Z</time>
<speed>0.123707</speed>
<trueHeading>173.329620</trueHeading>
<magneticHeading>181.617386</magneticHeading>
<gpsHeading>0.000000</gpsHeading>
<haccuracy>4.748652</haccuracy>
<vaccuracy>5.081942</vaccuracy>
<internetconnect>2</internetconnect>
</trkpt>
<trkpt lat="36.121650" lon="138.160925">
<ele>1677.267217</ele>
<time>2026-05-30T03:38:28Z</time>
<speed>0.079864</speed>
<trueHeading>210.156372</trueHeading>
<magneticHeading>218.444138</magneticHeading>
<gpsHeading>0.000000</gpsHeading>
<haccuracy>4.748652</haccuracy>
<vaccuracy>5.383602</vaccuracy>
<internetconnect>2</internetconnect>
</trkpt>
<trkpt lat="36.121400" lon="138.160716">
<ele>1673.861904</ele>
<time>2026-05-30T03:39:22Z</time>
<speed>1.084760</speed>
<trueHeading>145.738098</trueHeading>
<magneticHeading>154.025864</magneticHeading>
<gpsHeading>0.000000</gpsHeading>
<haccuracy>4.748651</haccuracy>
<vaccuracy>5.858261</vaccuracy>
<internetconnect>2</internetconnect>
</trkpt>
<trkpt lat="36.121061" lon="138.160522">
<ele>1669.381870</ele>
<time>2026-05-30T03:40:10Z</time>
<speed>0.540290</speed>
<trueHeading>328.626282</trueHeading>
<magneticHeading>336.914062</magneticHeading>
<gpsHeading>0.000000</gpsHeading>
<haccuracy>4.748651</haccuracy>
<vaccuracy>7.050267</vaccuracy>
<internetconnect>2</internetconnect>
</trkpt>
<trkpt lat="36.120808" lon="138.160406">
<ele>1662.252285</ele>
<time>2026-05-30T03:41:04Z</time>
<speed>0.520456</speed>
<trueHeading>306.702240</trueHeading>
<magneticHeading>314.990021</magneticHeading>
<gpsHeading>0.000000</gpsHeading>
<haccuracy>4.748651</haccuracy>
<vaccuracy>4.304985</vaccuracy>
<internetconnect>2</internetconnect>
</trkpt>
<trkpt lat="36.120601" lon="138.160172">
<ele>1656.791834</ele>
<time>2026-05-30T03:42:10Z</time>
<speed>0.319127</speed>
<trueHeading>26.299370</trueHeading>
<magneticHeading>34.587135</magneticHeading>
<gpsHeading>0.000000</gpsHeading>
<haccuracy>4.748652</haccuracy>
<vaccuracy>5.171949</vaccuracy>
<internetconnect>2</internetconnect>
</trkpt>
<trkpt lat="36.120278" lon="138.160076">
<ele>1652.238705</ele>
<time>2026-05-30T03:42:58Z</time>
<speed>0.687139</speed>
<trueHeading>319.553131</trueHeading>
<magneticHeading>327.840912</magneticHeading>
<gpsHeading>0.000000</gpsHeading>
<haccuracy>4.748652</haccuracy>
<vaccuracy>5.936140</vaccuracy>
<internetconnect>2</internetconnect>
</trkpt>
<trkpt lat="36.119871" lon="138.160052">
<ele>1650.065178</ele>
<time>2026-05-30T03:43:46Z</time>
<speed>0.548414</speed>
<trueHeading>62.024460</trueHeading>
<magneticHeading>70.312225</magneticHeading>
<gpsHeading>0.000000</gpsHeading>
<haccuracy>4.748652</haccuracy>
<vaccuracy>5.604788</vaccuracy>
<internetconnect>2</internetconnect>
</trkpt>
<trkpt lat="36.119930" lon="138.159658">
<ele>1649.148266</ele>
<time>2026-05-30T03:44:32Z</time>
<speed>0.080827</speed>
<trueHeading>315.981750</trueHeading>
<magneticHeading>324.269531</magneticHeading>
<gpsHeading>0.000000</gpsHeading>
<haccuracy>7.065902</haccuracy>
<vaccuracy>3.000000</vaccuracy>
<internetconnect>2</internetconnect>
</trkpt>
<trkpt lat="36.119930" lon="138.159658">
<ele>1648.879599</ele>
<time>2026-05-30T03:44:32Z</time>
<speed>0.080827</speed>
<trueHeading>322.849609</trueHeading>
<magneticHeading>331.137390</magneticHeading>
<gpsHeading>0.000000</gpsHeading>
<haccuracy>7.065902</haccuracy>
<vaccuracy>3.000000</vaccuracy>
<internetconnect>2</internetconnect>
</trkpt>
</trkseg></trk>
</gpx>
