<?xml version="1.0" encoding="UTF-8"?>
<gpx version="1.1" creator="kzi.jp gpx-viewer" xmlns="http://www.topografix.com/GPX/1/1">
<trk><name>下諏訪町</name><trkseg>
<trkpt lat="36.074671" lon="138.090541">
<ele>803.300991</ele>
<time>2026-05-30T00:59:53Z</time>
</trkpt>
<trkpt lat="36.074873" lon="138.090089">
<ele>790.007171</ele>
<time>2026-05-30T01:00:39Z</time>
</trkpt>
<trkpt lat="36.074605" lon="138.086971">
<ele>772.371377</ele>
<time>2026-05-30T01:01:29Z</time>
</trkpt>
<trkpt lat="36.074337" lon="138.083231">
<ele>776.376292</ele>
<time>2026-05-30T01:02:14Z</time>
</trkpt>
<trkpt lat="36.074311353178174" lon="138.08261455652675">
<ele>775.77088975</ele>
<time>2026-05-30T01:02:25.750Z</time>
</trkpt>
<trkpt lat="36.074237564316995" lon="138.08190648520286">
<ele>775.1654875</ele>
<time>2026-05-30T01:02:37.500Z</time>
</trkpt>
<trkpt lat="36.07423318130947" lon="138.0814022262674">
<ele>774.56008525</ele>
<time>2026-05-30T01:02:49.250Z</time>
</trkpt>
<trkpt lat="36.07427673233043" lon="138.08109104269263">
<ele>774.257384125</ele>
<time>2026-05-30T01:02:55.125Z</time>
</trkpt>
<trkpt lat="36.074721" lon="138.081139">
<ele>773.954683</ele>
<time>2026-05-30T01:03:01Z</time>
</trkpt>
<trkpt lat="36.075177" lon="138.081204">
<ele>778.545906</ele>
<time>2026-05-30T01:03:46Z</time>
</trkpt>
<trkpt lat="36.077224" lon="138.081449">
<ele>777.570534</ele>
<time>2026-05-30T01:04:32Z</time>
</trkpt>
<trkpt lat="36.081141" lon="138.08199">
<ele>786.622808</ele>
<time>2026-05-30T01:05:17Z</time>
</trkpt>
<trkpt lat="36.081044616090416" lon="138.08253940006392">
<ele>791.2755641666666</ele>
<time>2026-05-30T01:05:24.666Z</time>
</trkpt>
<trkpt lat="36.08113568286492" lon="138.08296861448792">
<ele>795.9283203333333</ele>
<time>2026-05-30T01:05:32.333Z</time>
</trkpt>
<trkpt lat="36.08112227649214" lon="138.08324204325763">
<ele>800.5810765</ele>
<time>2026-05-30T01:05:40.000Z</time>
</trkpt>
<trkpt lat="36.08120021993908" lon="138.08326888719196">
<ele>805.2338326666667</ele>
<time>2026-05-30T01:05:47.666Z</time>
</trkpt>
<trkpt lat="36.08126948834898" lon="138.08301682780754">
<ele>809.8865888333333</ele>
<time>2026-05-30T01:05:55.333Z</time>
</trkpt>
<trkpt lat="36.08129164761598" lon="138.08280232936124">
<ele>810.6620481944444</ele>
<time>2026-05-30T01:05:56.610Z</time>
</trkpt>
<trkpt lat="36.08135225330426" lon="138.08268432854769">
<ele>811.4375075555556</ele>
<time>2026-05-30T01:05:57.888Z</time>
</trkpt>
<trkpt lat="36.08148225641925" lon="138.0826682352936">
<ele>812.2129669166667</ele>
<time>2026-05-30T01:05:59.166Z</time>
</trkpt>
<trkpt lat="36.082219501546035" lon="138.08270577620794">
<ele>812.9884262777778</ele>
<time>2026-05-30T01:06:00.444Z</time>
</trkpt>
<trkpt lat="36.082557699138036" lon="138.08282377065024">
<ele>813.763885638889</ele>
<time>2026-05-30T01:06:01.722Z</time>
</trkpt>
<trkpt lat="36.08279179988804" lon="138.08293103807685">
<ele>814.539345</ele>
<time>2026-05-30T01:06:03Z</time>
</trkpt>
<trkpt lat="36.083012875480854" lon="138.0831188163724">
<ele>817.848745</ele>
<time>2026-05-30T01:06:10.666Z</time>
</trkpt>
<trkpt lat="36.08306865213896" lon="138.08326365019818">
<ele>821.158145</ele>
<time>2026-05-30T01:06:18.333Z</time>
</trkpt>
<trkpt lat="36.08469066814405" lon="138.0835747755218">
<ele>824.467545</ele>
<time>2026-05-30T01:06:26.000Z</time>
</trkpt>
<trkpt lat="36.08563560115248" lon="138.0838858862827">
<ele>827.7769450000001</ele>
<time>2026-05-30T01:06:33.666Z</time>
</trkpt>
<trkpt lat="36.0867195342267" lon="138.08408973598816">
<ele>831.086345</ele>
<time>2026-05-30T01:06:41.333Z</time>
</trkpt>
<trkpt lat="36.08749117501676" lon="138.0842077677476">
<ele>834.395745</ele>
<time>2026-05-30T01:06:49Z</time>
</trkpt>
<trkpt lat="36.08847091463244" lon="138.08432580132737">
<ele>835.4274506666667</ele>
<time>2026-05-30T01:06:56.500Z</time>
</trkpt>
<trkpt lat="36.08938991950772" lon="138.08464764456502">
<ele>836.4591563333333</ele>
<time>2026-05-30T01:07:04.000Z</time>
</trkpt>
<trkpt lat="36.090118086224486" lon="138.08509821199118">
<ele>837.490862</ele>
<time>2026-05-30T01:07:11.500Z</time>
</trkpt>
<trkpt lat="36.091089115119054" lon="138.08522696894596">
<ele>838.5225676666666</ele>
<time>2026-05-30T01:07:19.000Z</time>
</trkpt>
<trkpt lat="36.091678756005955" lon="138.08503392271078">
<ele>839.0384205</ele>
<time>2026-05-30T01:07:22.750Z</time>
</trkpt>
<trkpt lat="36.09191719520608" lon="138.08498026578806">
<ele>839.2103714444445</ele>
<time>2026-05-30T01:07:24.000Z</time>
</trkpt>
<trkpt lat="36.09213394723092" lon="138.08504463516374">
<ele>839.3823223888888</ele>
<time>2026-05-30T01:07:25.250Z</time>
</trkpt>
<trkpt lat="36.092255195836124" lon="138.08516629462463">
<ele>839.5542733333333</ele>
<time>2026-05-30T01:07:26.500Z</time>
</trkpt>
<trkpt lat="36.09243732521414" lon="138.08531282693963">
<ele>839.81219975</ele>
<time>2026-05-30T01:07:28.375Z</time>
</trkpt>
<trkpt lat="36.09269742379965" lon="138.08547910387477">
<ele>840.0701261666666</ele>
<time>2026-05-30T01:07:30.250Z</time>
</trkpt>
<trkpt lat="36.092940174181365" lon="138.08547374764828">
<ele>840.3280525833333</ele>
<time>2026-05-30T01:07:32.125Z</time>
</trkpt>
<trkpt lat="36.093208" lon="138.085358">
<ele>840.585979</ele>
<time>2026-05-30T01:07:34Z</time>
</trkpt>
<trkpt lat="36.09354265159085" lon="138.08521636389347">
<ele>843.1195836666666</ele>
<time>2026-05-30T01:07:41.666Z</time>
</trkpt>
<trkpt lat="36.09382865442542" lon="138.08531296528602">
<ele>845.6531883333333</ele>
<time>2026-05-30T01:07:49.333Z</time>
</trkpt>
<trkpt lat="36.09381108163405" lon="138.08575282936098">
<ele>848.186793</ele>
<time>2026-05-30T01:07:57.000Z</time>
</trkpt>
<trkpt lat="36.093975649668714" lon="138.08624632851453">
<ele>850.7203976666666</ele>
<time>2026-05-30T01:08:04.666Z</time>
</trkpt>
<trkpt lat="36.09410617139281" lon="138.08653590332835">
<ele>851.142665111111</ele>
<time>2026-05-30T01:08:05.943Z</time>
</trkpt>
<trkpt lat="36.09439226653479" lon="138.08675046548677">
<ele>851.5649325555555</ele>
<time>2026-05-30T01:08:07.221Z</time>
</trkpt>
<trkpt lat="36.09472173212881" lon="138.086911394387">
<ele>851.9872</ele>
<time>2026-05-30T01:08:08.499Z</time>
</trkpt>
<trkpt lat="36.095025176018936" lon="138.08707232146682">
<ele>852.4094674444444</ele>
<time>2026-05-30T01:08:09.777Z</time>
</trkpt>
<trkpt lat="36.095337288043275" lon="138.08721179451527">
<ele>852.8317348888888</ele>
<time>2026-05-30T01:08:11.055Z</time>
</trkpt>
<trkpt lat="36.09560603605133" lon="138.08732981353225">
<ele>853.2540023333333</ele>
<time>2026-05-30T01:08:12.333Z</time>
</trkpt>
<trkpt lat="36.09586612209863" lon="138.08744786531548">
<ele>854.5208046666667</ele>
<time>2026-05-30T01:08:16.166Z</time>
</trkpt>
<trkpt lat="36.096088" lon="138.087367">
<ele>855.787607</ele>
<time>2026-05-30T01:08:20Z</time>
</trkpt>
<trkpt lat="36.09653362667306" lon="138.08724410662737">
<ele>857.8897786666666</ele>
<time>2026-05-30T01:08:27.666Z</time>
</trkpt>
<trkpt lat="36.096854307489686" lon="138.08738360880133">
<ele>859.9919503333333</ele>
<time>2026-05-30T01:08:35.333Z</time>
</trkpt>
<trkpt lat="36.09732243134524" lon="138.0878985565253">
<ele>862.094122</ele>
<time>2026-05-30T01:08:43.000Z</time>
</trkpt>
<trkpt lat="36.09762592672849" lon="138.08831690467701">
<ele>863.1452078333333</ele>
<time>2026-05-30T01:08:46.833Z</time>
</trkpt>
<trkpt lat="36.09802533333333" lon="138.08858166666667">
<ele>864.1962936666666</ele>
<time>2026-05-30T01:08:50.666Z</time>
</trkpt>
<trkpt lat="36.09832817020807" lon="138.08869243396293">
<ele>865.2473795</ele>
<time>2026-05-30T01:08:54.499Z</time>
</trkpt>
<trkpt lat="36.09856656462013" lon="138.08870854997136">
<ele>866.2984653333333</ele>
<time>2026-05-30T01:08:58.333Z</time>
</trkpt>
<trkpt lat="36.098648831394335" lon="138.088724651417">
<ele>867.3495511666666</ele>
<time>2026-05-30T01:09:02.166Z</time>
</trkpt>
<trkpt lat="36.09895228473399" lon="138.08923958912902">
<ele>868.400637</ele>
<time>2026-05-30T01:09:06Z</time>
</trkpt>
<trkpt lat="36.09931204968746" lon="138.0898618634408">
<ele>871.90654075</ele>
<time>2026-05-30T01:09:11.750Z</time>
</trkpt>
<trkpt lat="36.09973682096637" lon="138.09040903407984">
<ele>875.4124445</ele>
<time>2026-05-30T01:09:17.500Z</time>
</trkpt>
<trkpt lat="36.10001860839043" lon="138.0907362799628">
<ele>877.7497136666667</ele>
<time>2026-05-30T01:09:21.333Z</time>
</trkpt>
<trkpt lat="36.10024830634844" lon="138.0911546954674">
<ele>880.0869828333333</ele>
<time>2026-05-30T01:09:25.166Z</time>
</trkpt>
<trkpt lat="36.10036521560572" lon="138.09156238031557">
<ele>882.424252</ele>
<time>2026-05-30T01:09:29.000Z</time>
</trkpt>
<trkpt lat="36.100577655090795" lon="138.0919969009065">
<ele>884.7615211666666</ele>
<time>2026-05-30T01:09:32.833Z</time>
</trkpt>
<trkpt lat="36.1010125261847" lon="138.09234915616557">
<ele>887.0987903333333</ele>
<time>2026-05-30T01:09:36.666Z</time>
</trkpt>
<trkpt lat="36.10133618147419" lon="138.09274254409056">
<ele>889.4360594999999</ele>
<time>2026-05-30T01:09:40.500Z</time>
</trkpt>
<trkpt lat="36.10163612098279" lon="138.09308436272704">
<ele>891.7733286666667</ele>
<time>2026-05-30T01:09:44.333Z</time>
</trkpt>
<trkpt lat="36.10200807026661" lon="138.09340238935238">
<ele>894.1105978333333</ele>
<time>2026-05-30T01:09:48.166Z</time>
</trkpt>
<trkpt lat="36.102155433757986" lon="138.0935472213578">
<ele>894.8896875555555</ele>
<time>2026-05-30T01:09:49.444Z</time>
</trkpt>
<trkpt lat="36.10227247964945" lon="138.09367596557016">
<ele>895.6687772777777</ele>
<time>2026-05-30T01:09:50.722Z</time>
</trkpt>
<trkpt lat="36.102236" lon="138.093768">
<ele>896.447867</ele>
<time>2026-05-30T01:09:52Z</time>
</trkpt>
<trkpt lat="36.10186216666666" lon="138.0935616666667">
<ele>899.8336553333334</ele>
<time>2026-05-30T01:10:00.000Z</time>
</trkpt>
<trkpt lat="36.10147491041522" lon="138.0934399220751">
<ele>903.2194436666666</ele>
<time>2026-05-30T01:10:08.000Z</time>
</trkpt>
<trkpt lat="36.10105445825708" lon="138.09334334434715">
<ele>906.605232</ele>
<time>2026-05-30T01:10:16.000Z</time>
</trkpt>
<trkpt lat="36.100677392566425" lon="138.09303224268797">
<ele>909.9910203333334</ele>
<time>2026-05-30T01:10:24.000Z</time>
</trkpt>
<trkpt lat="36.10036683333333" lon="138.09273633333333">
<ele>913.3768086666666</ele>
<time>2026-05-30T01:10:32.000Z</time>
</trkpt>
<trkpt lat="36.10027428802162" lon="138.09266746590262">
<ele>913.9411067222222</ele>
<time>2026-05-30T01:10:33.333Z</time>
</trkpt>
<trkpt lat="36.10015723300001" lon="138.09249046468236">
<ele>914.5054047777778</ele>
<time>2026-05-30T01:10:34.666Z</time>
</trkpt>
<trkpt lat="36.10004893889031" lon="138.0923831399148">
<ele>915.0697028333334</ele>
<time>2026-05-30T01:10:36.000Z</time>
</trkpt>
<trkpt lat="36.09998394143147" lon="138.0923026654528">
<ele>915.6340008888889</ele>
<time>2026-05-30T01:10:37.333Z</time>
</trkpt>
<trkpt lat="36.09990155709014" lon="138.09224905312857">
<ele>916.1982989444444</ele>
<time>2026-05-30T01:10:38.666Z</time>
</trkpt>
<trkpt lat="36.09986250234743" lon="138.09228659586321">
<ele>916.3863982962963</ele>
<time>2026-05-30T01:10:39.110Z</time>
</trkpt>
<trkpt lat="36.09987983380449" lon="138.09243142695848">
<ele>916.5744976481482</ele>
<time>2026-05-30T01:10:39.555Z</time>
</trkpt>
<trkpt lat="36.09995353911734" lon="138.09253871258855">
<ele>916.762597</ele>
<time>2026-05-30T01:10:40Z</time>
</trkpt>
<trkpt lat="36.1000576138288" lon="138.093423844294">
<ele>919.8157578333334</ele>
<time>2026-05-30T01:10:47.666Z</time>
</trkpt>
<trkpt lat="36.100135651311895" lon="138.09432506470262">
<ele>922.8689186666667</ele>
<time>2026-05-30T01:10:55.333Z</time>
</trkpt>
<trkpt lat="36.10013991801305" lon="138.0947595843834">
<ele>924.3954990833333</ele>
<time>2026-05-30T01:10:59.166Z</time>
</trkpt>
<trkpt lat="36.10022235953556" lon="138.095199467572">
<ele>925.9220795</ele>
<time>2026-05-30T01:11:03.000Z</time>
</trkpt>
<trkpt lat="36.10027431058384" lon="138.0954033172775">
<ele>926.6853697083334</ele>
<time>2026-05-30T01:11:04.916Z</time>
</trkpt>
<trkpt lat="36.10028733628609" lon="138.09564471426847">
<ele>927.4486599166667</ele>
<time>2026-05-30T01:11:06.833Z</time>
</trkpt>
<trkpt lat="36.100254838680826" lon="138.09587806463242">
<ele>928.2119501249999</ele>
<time>2026-05-30T01:11:08.749Z</time>
</trkpt>
<trkpt lat="36.100222341075565" lon="138.0961114149964">
<ele>928.9752403333333</ele>
<time>2026-05-30T01:11:10.666Z</time>
</trkpt>
<trkpt lat="36.100252677650126" lon="138.09695900032645">
<ele>932.0284011666666</ele>
<time>2026-05-30T01:11:18.333Z</time>
</trkpt>
<trkpt lat="36.10017458900541" lon="138.09740960780027">
<ele>933.5549815833333</ele>
<time>2026-05-30T01:11:22.166Z</time>
</trkpt>
<trkpt lat="36.1001442524007" lon="138.0976510038811">
<ele>934.3182717916666</ele>
<time>2026-05-30T01:11:24.083Z</time>
</trkpt>
<trkpt lat="36.100194" lon="138.097883">
<ele>935.081562</ele>
<time>2026-05-30T01:11:26Z</time>
</trkpt>
<trkpt lat="36.100300378395026" lon="138.09869169460768">
<ele>937.4374658333334</ele>
<time>2026-05-30T01:11:33.500Z</time>
</trkpt>
<trkpt lat="36.10015295809534" lon="138.09944271677253">
<ele>939.7933696666666</ele>
<time>2026-05-30T01:11:41.000Z</time>
</trkpt>
<trkpt lat="36.09977136906923" lon="138.10012401242508">
<ele>942.1492734999999</ele>
<time>2026-05-30T01:11:48.500Z</time>
</trkpt>
<trkpt lat="36.09969781331765" lon="138.10034394355242">
<ele>942.7382494583333</ele>
<time>2026-05-30T01:11:50.375Z</time>
</trkpt>
<trkpt lat="36.099684795722176" lon="138.10057461261752">
<ele>943.3272254166666</ele>
<time>2026-05-30T01:11:52.250Z</time>
</trkpt>
<trkpt lat="36.099719350001294" lon="138.1010305754076">
<ele>944.5051773333333</ele>
<time>2026-05-30T01:11:56.000Z</time>
</trkpt>
<trkpt lat="36.09975414834892" lon="138.10128271215675">
<ele>945.2904786111111</ele>
<time>2026-05-30T01:11:58.500Z</time>
</trkpt>
<trkpt lat="36.099918890589734" lon="138.10148120108488">
<ele>946.075779888889</ele>
<time>2026-05-30T01:12:01.000Z</time>
</trkpt>
<trkpt lat="36.09997523776921" lon="138.10156703632424">
<ele>946.4684305277779</ele>
<time>2026-05-30T01:12:02.250Z</time>
</trkpt>
<trkpt lat="36.099995666666665" lon="138.10172466666668">
<ele>946.8610811666667</ele>
<time>2026-05-30T01:12:03.500Z</time>
</trkpt>
<trkpt lat="36.099923188069425" lon="138.10198009014132">
<ele>947.6463824444445</ele>
<time>2026-05-30T01:12:06.000Z</time>
</trkpt>
<trkpt lat="36.09991018486915" lon="138.10226439974602">
<ele>948.4316837222223</ele>
<time>2026-05-30T01:12:08.500Z</time>
</trkpt>
<trkpt lat="36.099940546177656" lon="138.10251116479571">
<ele>949.216985</ele>
<time>2026-05-30T01:12:11Z</time>
</trkpt>
<trkpt lat="36.10001415092882" lon="138.1034392018335">
<ele>951.4076193333333</ele>
<time>2026-05-30T01:12:18.666Z</time>
</trkpt>
<trkpt lat="36.10005305586471" lon="138.10429750962845">
<ele>953.5982536666667</ele>
<time>2026-05-30T01:12:26.333Z</time>
</trkpt>
<trkpt lat="36.100287100408444" lon="138.1052255439357">
<ele>955.788888</ele>
<time>2026-05-30T01:12:34.000Z</time>
</trkpt>
<trkpt lat="36.10056017200605" lon="138.10616430434848">
<ele>957.9795223333333</ele>
<time>2026-05-30T01:12:41.666Z</time>
</trkpt>
<trkpt lat="36.1007683976257" lon="138.10663103329176">
<ele>959.0748394999999</ele>
<time>2026-05-30T01:12:45.499Z</time>
</trkpt>
<trkpt lat="36.10107608071461" lon="138.10701724954575">
<ele>960.1701566666666</ele>
<time>2026-05-30T01:12:49.333Z</time>
</trkpt>
<trkpt lat="36.10127986808806" lon="138.10730696725682">
<ele>961.2654738333333</ele>
<time>2026-05-30T01:12:53.166Z</time>
</trkpt>
<trkpt lat="36.1015" lon="138.107711">
<ele>962.360791</ele>
<time>2026-05-30T01:12:57Z</time>
</trkpt>
<trkpt lat="36.101726310488345" lon="138.10795605455704">
<ele>964.9349840833333</ele>
<time>2026-05-30T01:13:00.750Z</time>
</trkpt>
<trkpt lat="36.10197340623651" lon="138.10817064402065">
<ele>967.5091771666666</ele>
<time>2026-05-30T01:13:04.500Z</time>
</trkpt>
<trkpt lat="36.10223340557463" lon="138.1084281861456">
<ele>972.6575633333333</ele>
<time>2026-05-30T01:13:12.000Z</time>
</trkpt>
<trkpt lat="36.10256715408761" lon="138.10871779645618">
<ele>975.2317564166667</ele>
<time>2026-05-30T01:13:15.750Z</time>
</trkpt>
<trkpt lat="36.10275353703866" lon="138.10880900066445">
<ele>976.5188529583334</ele>
<time>2026-05-30T01:13:17.625Z</time>
</trkpt>
<trkpt lat="36.10290535437855" lon="138.10897535769482">
<ele>977.8059495</ele>
<time>2026-05-30T01:13:19.500Z</time>
</trkpt>
<trkpt lat="36.103104599730536" lon="138.10939907390528">
<ele>980.3801425833333</ele>
<time>2026-05-30T01:13:23.250Z</time>
</trkpt>
<trkpt lat="36.103308447475385" lon="138.10974779566382">
<ele>982.9543356666667</ele>
<time>2026-05-30T01:13:27.000Z</time>
</trkpt>
<trkpt lat="36.10353371342093" lon="138.1099355421033">
<ele>985.5285287500001</ele>
<time>2026-05-30T01:13:30.750Z</time>
</trkpt>
<trkpt lat="36.10360737838767" lon="138.11002672082668">
<ele>986.1720770208334</ele>
<time>2026-05-30T01:13:31.687Z</time>
</trkpt>
<trkpt lat="36.10364638409539" lon="138.1101554623085">
<ele>986.8156252916667</ele>
<time>2026-05-30T01:13:32.625Z</time>
</trkpt>
<trkpt lat="36.103650831095855" lon="138.1103593293073">
<ele>988.1027218333334</ele>
<time>2026-05-30T01:13:34.500Z</time>
</trkpt>
<trkpt lat="36.10361602421892" lon="138.11050951844936">
<ele>989.389818375</ele>
<time>2026-05-30T01:13:36.375Z</time>
</trkpt>
<trkpt lat="36.103642008880506" lon="138.1107026311272">
<ele>990.6769149166666</ele>
<time>2026-05-30T01:13:38.250Z</time>
</trkpt>
<trkpt lat="36.103685373375605" lon="138.11090111004347">
<ele>991.9640114583333</ele>
<time>2026-05-30T01:13:40.125Z</time>
</trkpt>
<trkpt lat="36.103754722471066" lon="138.11103522504504">
<ele>993.251108</ele>
<time>2026-05-30T01:13:42Z</time>
</trkpt>
<trkpt lat="36.10398444847561" lon="138.11145365420225">
<ele>994.9218346666667</ele>
<time>2026-05-30T01:13:50.500Z</time>
</trkpt>
<trkpt lat="36.10426185984217" lon="138.11185062568734">
<ele>996.5925613333334</ele>
<time>2026-05-30T01:13:59.000Z</time>
</trkpt>
<trkpt lat="36.10453059988749" lon="138.11221005352758">
<ele>998.2632880000001</ele>
<time>2026-05-30T01:14:07.500Z</time>
</trkpt>
<trkpt lat="36.104747302764544" lon="138.1125641169498">
<ele>999.9340146666667</ele>
<time>2026-05-30T01:14:16.000Z</time>
</trkpt>
<trkpt lat="36.10497267943962" lon="138.11295572583717">
<ele>1001.6047413333333</ele>
<time>2026-05-30T01:14:24.500Z</time>
</trkpt>
<trkpt lat="36.10504198022601" lon="138.11317028435494">
<ele>1002.4401046666667</ele>
<time>2026-05-30T01:14:28.750Z</time>
</trkpt>
<trkpt lat="36.105093" lon="138.113595">
<ele>1003.275468</ele>
<time>2026-05-30T01:14:33Z</time>
</trkpt>
<trkpt lat="36.105143" lon="138.113737">
<ele>1001.283632</ele>
<time>2026-05-30T01:16:39Z</time>
</trkpt>
<trkpt lat="36.105143" lon="138.113737">
<ele>1001.283632</ele>
<time>2026-05-30T01:18:39Z</time>
</trkpt>
<trkpt lat="36.105295" lon="138.114097">
<ele>1003.597695</ele>
<time>2026-05-30T01:20:24Z</time>
</trkpt>
<trkpt lat="36.105578333333334" lon="138.11486683333334">
<ele>1008.3018835</ele>
<time>2026-05-30T01:20:31.500Z</time>
</trkpt>
<trkpt lat="36.10574838074972" lon="138.11570762404727">
<ele>1013.006072</ele>
<time>2026-05-30T01:20:39.000Z</time>
</trkpt>
<trkpt lat="36.10587833120956" lon="138.11651228038053">
<ele>1017.7102605</ele>
<time>2026-05-30T01:20:46.500Z</time>
</trkpt>
<trkpt lat="36.105917385012845" lon="138.1167000887118">
<ele>1020.06235475</ele>
<time>2026-05-30T01:20:50.250Z</time>
</trkpt>
<trkpt lat="36.106155860996644" lon="138.11701655205846">
<ele>1021.2384018750001</ele>
<time>2026-05-30T01:20:52.125Z</time>
</trkpt>
<trkpt lat="36.10629012637242" lon="138.11730621060823">
<ele>1022.4144490000001</ele>
<time>2026-05-30T01:20:54.000Z</time>
</trkpt>
<trkpt lat="36.106563166850414" lon="138.11800896029226">
<ele>1027.1186375</ele>
<time>2026-05-30T01:21:01.500Z</time>
</trkpt>
<trkpt lat="36.106995" lon="138.118716">
<ele>1031.822826</ele>
<time>2026-05-30T01:21:09Z</time>
</trkpt>
<trkpt lat="36.10708766928275" lon="138.11960756596685">
<ele>1036.7684503333335</ele>
<time>2026-05-30T01:21:16.666Z</time>
</trkpt>
<trkpt lat="36.1071830357818" lon="138.12047660259785">
<ele>1041.7140746666666</ele>
<time>2026-05-30T01:21:24.333Z</time>
</trkpt>
<trkpt lat="36.10722202945949" lon="138.12084675927412">
<ele>1044.1868868333333</ele>
<time>2026-05-30T01:21:28.166Z</time>
</trkpt>
<trkpt lat="36.107164" lon="138.121351">
<ele>1046.659699</ele>
<time>2026-05-30T01:21:32.000Z</time>
</trkpt>
<trkpt lat="36.10707458112905" lon="138.12222004118803">
<ele>1051.6053233333334</ele>
<time>2026-05-30T01:21:39.666Z</time>
</trkpt>
<trkpt lat="36.107109242908365" lon="138.12308371431118">
<ele>1056.5509476666666</ele>
<time>2026-05-30T01:21:47.333Z</time>
</trkpt>
<trkpt lat="36.107130949838556" lon="138.12340023408856">
<ele>1059.0237598333333</ele>
<time>2026-05-30T01:21:51.166Z</time>
</trkpt>
<trkpt lat="36.107333" lon="138.123986">
<ele>1061.496572</ele>
<time>2026-05-30T01:21:55Z</time>
</trkpt>
<trkpt lat="36.107535" lon="138.1247105">
<ele>1066.0867281666667</ele>
<time>2026-05-30T01:22:02.666Z</time>
</trkpt>
<trkpt lat="36.10764669439437" lon="138.12502033566258">
<ele>1070.6768843333334</ele>
<time>2026-05-30T01:22:10.333Z</time>
</trkpt>
<trkpt lat="36.10788508104089" lon="138.12532617848382">
<ele>1075.2670405</ele>
<time>2026-05-30T01:22:18.000Z</time>
</trkpt>
<trkpt lat="36.108158152891264" lon="138.12562129428932">
<ele>1079.8571966666666</ele>
<time>2026-05-30T01:22:25.666Z</time>
</trkpt>
<trkpt lat="36.10831855382778" lon="138.12594833902395">
<ele>1081.0047357083333</ele>
<time>2026-05-30T01:22:27.582Z</time>
</trkpt>
<trkpt lat="36.10847029273354" lon="138.1265598626555">
<ele>1082.1522747499998</ele>
<time>2026-05-30T01:22:29.499Z</time>
</trkpt>
<trkpt lat="36.1086046854105" lon="138.1268227591866">
<ele>1083.2998137916666</ele>
<time>2026-05-30T01:22:31.416Z</time>
</trkpt>
<trkpt lat="36.10876075767581" lon="138.12712319936253">
<ele>1084.4473528333333</ele>
<time>2026-05-30T01:22:33.333Z</time>
</trkpt>
<trkpt lat="36.108855906800535" lon="138.12732697534395">
<ele>1085.594891875</ele>
<time>2026-05-30T01:22:35.249Z</time>
</trkpt>
<trkpt lat="36.108877682978196" lon="138.12749330233862">
<ele>1086.7424309166668</ele>
<time>2026-05-30T01:22:37.166Z</time>
</trkpt>
<trkpt lat="36.108851585198806" lon="138.12764882677314">
<ele>1087.0293156770833</ele>
<time>2026-05-30T01:22:37.645Z</time>
</trkpt>
<trkpt lat="36.108799576244856" lon="138.12777221020818">
<ele>1087.3162004375</ele>
<time>2026-05-30T01:22:38.124Z</time>
</trkpt>
<trkpt lat="36.108747569307326" lon="138.12792777469036">
<ele>1087.6030851979167</ele>
<time>2026-05-30T01:22:38.603Z</time>
</trkpt>
<trkpt lat="36.10867391736424" lon="138.12802970409396">
<ele>1087.8899699583333</ele>
<time>2026-05-30T01:22:39.083Z</time>
</trkpt>
<trkpt lat="36.108545" lon="138.128333">
<ele>1089.037509</ele>
<time>2026-05-30T01:22:41Z</time>
</trkpt>
<trkpt lat="36.108531" lon="138.128587">
<ele>1089.718399</ele>
<time>2026-05-30T01:22:57Z</time>
</trkpt>
</trkseg></trk></gpx>